{"type":"FeatureCollection","features":[
{"type":"Feature","properties":{"name":"Cape May Point Borough","short":"Cape May Point","county":"Cape May"},"geometry":{"type":"Point","coordinates":[-74.965417,38.937486]}},
{"type":"Feature","properties":{"name":"West Cape May Borough","short":"West Cape May","county":"Cape May"},"geometry":{"type":"Point","coordinates":[-74.935391,38.942407]}},
{"type":"Feature","properties":{"name":"Cape May City","short":"Cape May","county":"Cape May"},"geometry":{"type":"Point","coordinates":[-74.907805,38.940062]}},
{"type":"Feature","properties":{"name":"Wildwood Crest Borough","short":"Wildwood Crest","county":"Cape May"},"geometry":{"type":"Point","coordinates":[-74.832202,38.975563]}},
{"type":"Feature","properties":{"name":"West Wildwood Borough","short":"West Wildwood","county":"Cape May"},"geometry":{"type":"Point","coordinates":[-74.824992,39.000543]}},
{"type":"Feature","properties":{"name":"North Wildwood City","short":"North Wildwood","county":"Cape May"},"geometry":{"type":"Point","coordinates":[-74.801349,38.998164]}},
{"type":"Feature","properties":{"name":"Lower Township","short":"Lower","county":"Cape May"},"geometry":{"type":"Point","coordinates":[-74.916994,38.987678]}},
{"type":"Feature","properties":{"name":"Stone Harbor Borough","short":"Stone Harbor","county":"Cape May"},"geometry":{"type":"Point","coordinates":[-74.785069,39.02326]}},
{"type":"Feature","properties":{"name":"Avalon Borough","short":"Avalon","county":"Cape May"},"geometry":{"type":"Point","coordinates":[-74.747949,39.078937]}},
{"type":"Feature","properties":{"name":"Sea Isle City","short":"Sea Isle","county":"Cape May"},"geometry":{"type":"Point","coordinates":[-74.690762,39.164775]}},
{"type":"Feature","properties":{"name":"Woodbine Borough","short":"Woodbine","county":"Cape May"},"geometry":{"type":"Point","coordinates":[-74.815581,39.236977]}},
{"type":"Feature","properties":{"name":"Dennis Township","short":"Dennis","county":"Cape May"},"geometry":{"type":"Point","coordinates":[-74.759711,39.177557]}},
{"type":"Feature","properties":{"name":"Ocean City","short":"Ocean","county":"Cape May"},"geometry":{"type":"Point","coordinates":[-74.587898,39.288107]}},
{"type":"Feature","properties":{"name":"Longport Borough","short":"Longport","county":"Atlantic"},"geometry":{"type":"Point","coordinates":[-74.52265,39.317894]}},
{"type":"Feature","properties":{"name":"Upper Township","short":"Upper","county":"Cape May"},"geometry":{"type":"Point","coordinates":[-74.705372,39.241366]}},
{"type":"Feature","properties":{"name":"Corbin City","short":"Corbin","county":"Atlantic"},"geometry":{"type":"Point","coordinates":[-74.765841,39.31069]}},
{"type":"Feature","properties":{"name":"Somers Point City","short":"Somers Point","county":"Atlantic"},"geometry":{"type":"Point","coordinates":[-74.607087,39.319178]}},
{"type":"Feature","properties":{"name":"Margate City","short":"Margate","county":"Atlantic"},"geometry":{"type":"Point","coordinates":[-74.504532,39.332693]}},
{"type":"Feature","properties":{"name":"Commercial Township","short":"Commercial","county":"Cumberland"},"geometry":{"type":"Point","coordinates":[-75.029106,39.288963]}},
{"type":"Feature","properties":{"name":"Downe Township","short":"Downe","county":"Cumberland"},"geometry":{"type":"Point","coordinates":[-75.116316,39.285267]}},
{"type":"Feature","properties":{"name":"Ventnor City","short":"Ventnor","county":"Atlantic"},"geometry":{"type":"Point","coordinates":[-74.480924,39.346221]}},
{"type":"Feature","properties":{"name":"Linwood City","short":"Linwood","county":"Atlantic"},"geometry":{"type":"Point","coordinates":[-74.567753,39.347111]}},
{"type":"Feature","properties":{"name":"Northfield City","short":"Northfield","county":"Atlantic"},"geometry":{"type":"Point","coordinates":[-74.556218,39.372658]}},
{"type":"Feature","properties":{"name":"Lawrence Township","short":"Lawrence","county":"Cumberland"},"geometry":{"type":"Point","coordinates":[-75.182011,39.332152]}},
{"type":"Feature","properties":{"name":"Atlantic City","short":"Atlantic","county":"Atlantic"},"geometry":{"type":"Point","coordinates":[-74.454512,39.380928]}},
{"type":"Feature","properties":{"name":"Greenwich Township","short":"Greenwich","county":"Cumberland"},"geometry":{"type":"Point","coordinates":[-75.375806,39.392786]}},
{"type":"Feature","properties":{"name":"Weymouth Township","short":"Weymouth","county":"Atlantic"},"geometry":{"type":"Point","coordinates":[-74.837498,39.406267]}},
{"type":"Feature","properties":{"name":"Estell Manor City","short":"Estell Manor","county":"Atlantic"},"geometry":{"type":"Point","coordinates":[-74.774356,39.367762]}},
{"type":"Feature","properties":{"name":"Millville City","short":"Millville","county":"Cumberland"},"geometry":{"type":"Point","coordinates":[-75.076214,39.399741]}},
{"type":"Feature","properties":{"name":"Brigantine City","short":"Brigantine","county":"Atlantic"},"geometry":{"type":"Point","coordinates":[-74.378402,39.416655]}},
{"type":"Feature","properties":{"name":"Bridgeton City","short":"Bridgeton","county":"Cumberland"},"geometry":{"type":"Point","coordinates":[-75.224653,39.427725]}},
{"type":"Feature","properties":{"name":"Shiloh Borough","short":"Shiloh","county":"Cumberland"},"geometry":{"type":"Point","coordinates":[-75.300309,39.45987]}},
{"type":"Feature","properties":{"name":"Deerfield Township","short":"Deerfield","county":"Cumberland"},"geometry":{"type":"Point","coordinates":[-75.136242,39.458884]}},
{"type":"Feature","properties":{"name":"Hopewell Township","short":"Hopewell","county":"Cumberland"},"geometry":{"type":"Point","coordinates":[-75.281076,39.420805]}},
{"type":"Feature","properties":{"name":"Buena Borough","short":"Buena","county":"Atlantic"},"geometry":{"type":"Point","coordinates":[-74.940403,39.528256]}},
{"type":"Feature","properties":{"name":"Port Republic City","short":"Port Republic","county":"Atlantic"},"geometry":{"type":"Point","coordinates":[-74.49386,39.528461]}},
{"type":"Feature","properties":{"name":"Lower Alloways Creek Township","short":"Lower Alloways Creek","county":"Salem"},"geometry":{"type":"Point","coordinates":[-75.446277,39.478579]}},
{"type":"Feature","properties":{"name":"Upper Deerfield Township","short":"Upper Deerfield","county":"Cumberland"},"geometry":{"type":"Point","coordinates":[-75.213586,39.496337]}},
{"type":"Feature","properties":{"name":"Vineland City","short":"Vineland","county":"Cumberland"},"geometry":{"type":"Point","coordinates":[-75.018572,39.476236]}},
{"type":"Feature","properties":{"name":"Elsinboro Township","short":"Elsinboro","county":"Salem"},"geometry":{"type":"Point","coordinates":[-75.498784,39.535545]}},
{"type":"Feature","properties":{"name":"Quinton Township","short":"Quinton","county":"Salem"},"geometry":{"type":"Point","coordinates":[-75.393842,39.537815]}},
{"type":"Feature","properties":{"name":"Beach Haven Borough","short":"Beach Haven","county":"Ocean"},"geometry":{"type":"Point","coordinates":[-74.24448,39.565298]}},
{"type":"Feature","properties":{"name":"Salem City","short":"Salem","county":"Salem"},"geometry":{"type":"Point","coordinates":[-75.466921,39.566372]}},
{"type":"Feature","properties":{"name":"Hamilton Township","short":"Hamilton","county":"Atlantic"},"geometry":{"type":"Point","coordinates":[-74.775218,39.509171]}},
{"type":"Feature","properties":{"name":"Buena Vista Township","short":"Buena Vista","county":"Atlantic"},"geometry":{"type":"Point","coordinates":[-74.896185,39.497304]}},
{"type":"Feature","properties":{"name":"Elmer Borough","short":"Elmer","county":"Salem"},"geometry":{"type":"Point","coordinates":[-75.17344,39.592199]}},
{"type":"Feature","properties":{"name":"Alloway Township","short":"Alloway","county":"Salem"},"geometry":{"type":"Point","coordinates":[-75.312483,39.557197]}},
{"type":"Feature","properties":{"name":"Tuckerton Borough","short":"Tuckerton","county":"Ocean"},"geometry":{"type":"Point","coordinates":[-74.331038,39.597855]}},
{"type":"Feature","properties":{"name":"Folsom Borough","short":"Folsom","county":"Atlantic"},"geometry":{"type":"Point","coordinates":[-74.850968,39.598729]}},
{"type":"Feature","properties":{"name":"Ship Bottom Borough","short":"Ship Bottom","county":"Ocean"},"geometry":{"type":"Point","coordinates":[-74.180413,39.64973]}},
{"type":"Feature","properties":{"name":"Woodstown Borough","short":"Woodstown","county":"Salem"},"geometry":{"type":"Point","coordinates":[-75.325887,39.651507]}},
{"type":"Feature","properties":{"name":"Upper Pittsgrove Township","short":"Upper Pittsgrove","county":"Salem"},"geometry":{"type":"Point","coordinates":[-75.223589,39.61112]}},
{"type":"Feature","properties":{"name":"Surf City Borough","short":"Surf City","county":"Ocean"},"geometry":{"type":"Point","coordinates":[-74.171957,39.663944]}},
{"type":"Feature","properties":{"name":"Mannington Township","short":"Mannington","county":"Salem"},"geometry":{"type":"Point","coordinates":[-75.420502,39.619006]}},
{"type":"Feature","properties":{"name":"Long Beach Township","short":"Long Beach","county":"Ocean"},"geometry":{"type":"Point","coordinates":[-74.224565,39.617745]}},
{"type":"Feature","properties":{"name":"Pennsville Township","short":"Pennsville","county":"Salem"},"geometry":{"type":"Point","coordinates":[-75.513909,39.618886]}},
{"type":"Feature","properties":{"name":"Harvey Cedars Borough","short":"Harvey Cedars","county":"Ocean"},"geometry":{"type":"Point","coordinates":[-74.144219,39.697655]}},
{"type":"Feature","properties":{"name":"Pilesgrove Township","short":"Pilesgrove","county":"Salem"},"geometry":{"type":"Point","coordinates":[-75.286985,39.649959]}},
{"type":"Feature","properties":{"name":"Penns Grove Borough","short":"Penns Grove","county":"Salem"},"geometry":{"type":"Point","coordinates":[-75.46853,39.72642]}},
{"type":"Feature","properties":{"name":"Chesilhurst Borough","short":"Chesilhurst","county":"Camden"},"geometry":{"type":"Point","coordinates":[-74.884779,39.728851]}},
{"type":"Feature","properties":{"name":"Barnegat Light Borough","short":"Barnegat Light","county":"Ocean"},"geometry":{"type":"Point","coordinates":[-74.10764,39.755955]}},
{"type":"Feature","properties":{"name":"Bass River Township","short":"Bass River","county":"Burlington"},"geometry":{"type":"Point","coordinates":[-74.449923,39.662688]}},
{"type":"Feature","properties":{"name":"Washington Township","short":"Washington","county":"Burlington"},"geometry":{"type":"Point","coordinates":[-74.589847,39.687827]}},
{"type":"Feature","properties":{"name":"Winslow Township","short":"Winslow","county":"Camden"},"geometry":{"type":"Point","coordinates":[-74.865776,39.674704]}},
{"type":"Feature","properties":{"name":"Oldmans Township","short":"Oldmans","county":"Salem"},"geometry":{"type":"Point","coordinates":[-75.414594,39.735417]}},
{"type":"Feature","properties":{"name":"Waterford Township","short":"Waterford","county":"Camden"},"geometry":{"type":"Point","coordinates":[-74.816397,39.741254]}},
{"type":"Feature","properties":{"name":"Pine Hill Borough","short":"Pine Hill","county":"Camden"},"geometry":{"type":"Point","coordinates":[-74.968284,39.782995]}},
{"type":"Feature","properties":{"name":"Berlin Borough","short":"Berlin","county":"Camden"},"geometry":{"type":"Point","coordinates":[-74.939497,39.790823]}},
{"type":"Feature","properties":{"name":"Clementon Borough","short":"Clementon","county":"Camden"},"geometry":{"type":"Point","coordinates":[-74.980523,39.805861]}},
{"type":"Feature","properties":{"name":"Laurel Springs Borough","short":"Laurel Springs","county":"Camden"},"geometry":{"type":"Point","coordinates":[-75.004603,39.821148]}},
{"type":"Feature","properties":{"name":"Barnegat Township","short":"Barnegat","county":"Ocean"},"geometry":{"type":"Point","coordinates":[-74.364148,39.79681]}},
{"type":"Feature","properties":{"name":"Ocean Township","short":"Ocean","county":"Ocean"},"geometry":{"type":"Point","coordinates":[-74.189441,39.787109]}},
{"type":"Feature","properties":{"name":"Lindenwold Borough","short":"Lindenwold","county":"Camden"},"geometry":{"type":"Point","coordinates":[-74.986544,39.82197]}},
{"type":"Feature","properties":{"name":"Stratford Borough","short":"Stratford","county":"Camden"},"geometry":{"type":"Point","coordinates":[-75.020142,39.826419]}},
{"type":"Feature","properties":{"name":"Shamong Township","short":"Shamong","county":"Burlington"},"geometry":{"type":"Point","coordinates":[-74.71639,39.769328]}},
{"type":"Feature","properties":{"name":"Hi-Nella Borough","short":"Hi-Nella","county":"Camden"},"geometry":{"type":"Point","coordinates":[-75.020064,39.835833]}},
{"type":"Feature","properties":{"name":"Logan Township","short":"Logan","county":"Gloucester"},"geometry":{"type":"Point","coordinates":[-75.358788,39.793366]}},
{"type":"Feature","properties":{"name":"Gibbsboro Borough","short":"Gibbsboro","county":"Camden"},"geometry":{"type":"Point","coordinates":[-74.965391,39.83531]}},
{"type":"Feature","properties":{"name":"Somerdale Borough","short":"Somerdale","county":"Camden"},"geometry":{"type":"Point","coordinates":[-75.020486,39.847839]}},
{"type":"Feature","properties":{"name":"Runnemede Borough","short":"Runnemede","county":"Camden"},"geometry":{"type":"Point","coordinates":[-75.078026,39.8515]}},
{"type":"Feature","properties":{"name":"Magnolia Borough","short":"Magnolia","county":"Camden"},"geometry":{"type":"Point","coordinates":[-75.036301,39.856473]}},
{"type":"Feature","properties":{"name":"Medford Lakes Borough","short":"Medford Lakes","county":"Burlington"},"geometry":{"type":"Point","coordinates":[-74.812815,39.856491]}},
{"type":"Feature","properties":{"name":"Bellmawr Borough","short":"Bellmawr","county":"Camden"},"geometry":{"type":"Point","coordinates":[-75.095383,39.865312]}},
{"type":"Feature","properties":{"name":"Tabernacle Township","short":"Tabernacle","county":"Burlington"},"geometry":{"type":"Point","coordinates":[-74.667058,39.839628]}},
{"type":"Feature","properties":{"name":"Lawnside Borough","short":"Lawnside","county":"Camden"},"geometry":{"type":"Point","coordinates":[-75.022374,39.865658]}},
{"type":"Feature","properties":{"name":"Tavistock Borough","short":"Tavistock","county":"Camden"},"geometry":{"type":"Point","coordinates":[-75.022535,39.875064]}},
{"type":"Feature","properties":{"name":"Barrington Borough","short":"Barrington","county":"Camden"},"geometry":{"type":"Point","coordinates":[-75.052867,39.865192]}},
{"type":"Feature","properties":{"name":"Brooklawn Borough","short":"Brooklawn","county":"Camden"},"geometry":{"type":"Point","coordinates":[-75.122051,39.878148]}},
{"type":"Feature","properties":{"name":"Haddon Heights Borough","short":"Haddon Heights","county":"Camden"},"geometry":{"type":"Point","coordinates":[-75.062297,39.87928]}},
{"type":"Feature","properties":{"name":"Mount Ephraim Borough","short":"Mount Ephraim","county":"Camden"},"geometry":{"type":"Point","coordinates":[-75.091712,39.881216]}},
{"type":"Feature","properties":{"name":"Audubon Park Borough","short":"Audubon Park","county":"Camden"},"geometry":{"type":"Point","coordinates":[-75.089288,39.896695]}},
{"type":"Feature","properties":{"name":"Audubon Borough","short":"Audubon","county":"Camden"},"geometry":{"type":"Point","coordinates":[-75.072038,39.889633]}},
{"type":"Feature","properties":{"name":"Gloucester City","short":"Gloucester","county":"Camden"},"geometry":{"type":"Point","coordinates":[-75.122999,39.894233]}},
{"type":"Feature","properties":{"name":"Oaklyn Borough","short":"Oaklyn","county":"Camden"},"geometry":{"type":"Point","coordinates":[-75.082934,39.902461]}},
{"type":"Feature","properties":{"name":"Haddonfield Borough","short":"Haddonfield","county":"Camden"},"geometry":{"type":"Point","coordinates":[-75.036093,39.895212]}},
{"type":"Feature","properties":{"name":"Berlin Township","short":"Berlin","county":"Camden"},"geometry":{"type":"Point","coordinates":[-74.929585,39.810863]}},
{"type":"Feature","properties":{"name":"Woodlynne Borough","short":"Woodlynne","county":"Camden"},"geometry":{"type":"Point","coordinates":[-75.094988,39.916801]}},
{"type":"Feature","properties":{"name":"Woodland Township","short":"Woodland","county":"Burlington"},"geometry":{"type":"Point","coordinates":[-74.512674,39.840399]}},
{"type":"Feature","properties":{"name":"Haddon Township","short":"Haddon","county":"Camden"},"geometry":{"type":"Point","coordinates":[-75.056174,39.902153]}},
{"type":"Feature","properties":{"name":"Ocean Gate Borough","short":"Ocean Gate","county":"Ocean"},"geometry":{"type":"Point","coordinates":[-74.138981,39.927582]}},
{"type":"Feature","properties":{"name":"Seaside Park Borough","short":"Seaside Park","county":"Ocean"},"geometry":{"type":"Point","coordinates":[-74.078523,39.930509]}},
{"type":"Feature","properties":{"name":"Lacey Township","short":"Lacey","county":"Ocean"},"geometry":{"type":"Point","coordinates":[-74.255325,39.851993]}},
{"type":"Feature","properties":{"name":"Pine Beach Borough","short":"Pine Beach","county":"Ocean"},"geometry":{"type":"Point","coordinates":[-74.172639,39.936427]}},
{"type":"Feature","properties":{"name":"Beachwood Borough","short":"Beachwood","county":"Ocean"},"geometry":{"type":"Point","coordinates":[-74.206782,39.923997]}},
{"type":"Feature","properties":{"name":"South Toms River Borough","short":"South Toms River","county":"Ocean"},"geometry":{"type":"Point","coordinates":[-74.20686,39.940739]}},
{"type":"Feature","properties":{"name":"Island Heights Borough","short":"Island Heights","county":"Ocean"},"geometry":{"type":"Point","coordinates":[-74.140489,39.940496]}},
{"type":"Feature","properties":{"name":"Cherry Hill Township","short":"Cherry Hill","county":"Camden"},"geometry":{"type":"Point","coordinates":[-74.988908,39.89272]}},
{"type":"Feature","properties":{"name":"Seaside Heights Borough","short":"Seaside Heights","county":"Ocean"},"geometry":{"type":"Point","coordinates":[-74.075002,39.942989]}},
{"type":"Feature","properties":{"name":"Merchantville Borough","short":"Merchantville","county":"Camden"},"geometry":{"type":"Point","coordinates":[-75.047543,39.95148]}},
{"type":"Feature","properties":{"name":"Maple Shade Township","short":"Maple Shade","county":"Burlington"},"geometry":{"type":"Point","coordinates":[-75.000818,39.953885]}},
{"type":"Feature","properties":{"name":"Pemberton Borough","short":"Pemberton","county":"Burlington"},"geometry":{"type":"Point","coordinates":[-74.687189,39.971535]}},
{"type":"Feature","properties":{"name":"Lavallette Borough","short":"Lavallette","county":"Ocean"},"geometry":{"type":"Point","coordinates":[-74.07132,39.965787]}},
{"type":"Feature","properties":{"name":"Southampton Township","short":"Southampton","county":"Burlington"},"geometry":{"type":"Point","coordinates":[-74.738005,39.914596]}},
{"type":"Feature","properties":{"name":"Berkeley Township","short":"Berkeley","county":"Ocean"},"geometry":{"type":"Point","coordinates":[-74.267272,39.944244]}},
{"type":"Feature","properties":{"name":"Lumberton Township","short":"Lumberton","county":"Burlington"},"geometry":{"type":"Point","coordinates":[-74.80242,39.956653]}},
{"type":"Feature","properties":{"name":"Hainesport Township","short":"Hainesport","county":"Burlington"},"geometry":{"type":"Point","coordinates":[-74.836119,39.979523]}},
{"type":"Feature","properties":{"name":"Mount Laurel Township","short":"Mount Laurel","county":"Burlington"},"geometry":{"type":"Point","coordinates":[-74.89397,39.948127]}},
{"type":"Feature","properties":{"name":"Pemberton Township","short":"Pemberton","county":"Burlington"},"geometry":{"type":"Point","coordinates":[-74.591735,39.945774]}},
{"type":"Feature","properties":{"name":"Mount Holly Township","short":"Mount Holly","county":"Burlington"},"geometry":{"type":"Point","coordinates":[-74.788354,39.996155]}},
{"type":"Feature","properties":{"name":"Moorestown Township","short":"Moorestown","county":"Burlington"},"geometry":{"type":"Point","coordinates":[-74.957737,39.968852]}},
{"type":"Feature","properties":{"name":"Palmyra Borough","short":"Palmyra","county":"Burlington"},"geometry":{"type":"Point","coordinates":[-75.033457,40.005567]}},
{"type":"Feature","properties":{"name":"Lakehurst Borough","short":"Lakehurst","county":"Ocean"},"geometry":{"type":"Point","coordinates":[-74.323433,40.013391]}},
{"type":"Feature","properties":{"name":"Riverton Borough","short":"Riverton","county":"Burlington"},"geometry":{"type":"Point","coordinates":[-75.015519,40.012362]}},
{"type":"Feature","properties":{"name":"Eastampton Township","short":"Eastampton","county":"Burlington"},"geometry":{"type":"Point","coordinates":[-74.752692,39.99808]}},
{"type":"Feature","properties":{"name":"Cinnaminson Township","short":"Cinnaminson","county":"Burlington"},"geometry":{"type":"Point","coordinates":[-74.983999,39.999296]}},
{"type":"Feature","properties":{"name":"Wrightstown Borough","short":"Wrightstown","county":"Burlington"},"geometry":{"type":"Point","coordinates":[-74.651296,40.014127]}},
{"type":"Feature","properties":{"name":"Delran Township","short":"Delran","county":"Burlington"},"geometry":{"type":"Point","coordinates":[-74.945664,40.013701]}},
{"type":"Feature","properties":{"name":"Westampton Township","short":"Westampton","county":"Burlington"},"geometry":{"type":"Point","coordinates":[-74.808833,40.021258]}},
{"type":"Feature","properties":{"name":"Riverside Township","short":"Riverside","county":"Burlington"},"geometry":{"type":"Point","coordinates":[-74.95839,40.035399]}},
{"type":"Feature","properties":{"name":"Manchester Township","short":"Manchester","county":"Ocean"},"geometry":{"type":"Point","coordinates":[-74.4118,39.944901]}},
{"type":"Feature","properties":{"name":"Willingboro Township","short":"Willingboro","county":"Burlington"},"geometry":{"type":"Point","coordinates":[-74.892535,40.030947]}},
{"type":"Feature","properties":{"name":"Toms River Township","short":"Toms River","county":"Ocean"},"geometry":{"type":"Point","coordinates":[-74.189825,39.991407]}},
{"type":"Feature","properties":{"name":"Delanco Township","short":"Delanco","county":"Burlington"},"geometry":{"type":"Point","coordinates":[-74.943136,40.051681]}},
{"type":"Feature","properties":{"name":"Beverly City","short":"Beverly","county":"Burlington"},"geometry":{"type":"Point","coordinates":[-74.923993,40.065112]}},
{"type":"Feature","properties":{"name":"Edgewater Park Township","short":"Edgewater Park","county":"Burlington"},"geometry":{"type":"Point","coordinates":[-74.918914,40.049315]}},
{"type":"Feature","properties":{"name":"Springfield Township","short":"Springfield","county":"Burlington"},"geometry":{"type":"Point","coordinates":[-74.700418,40.025613]}},
{"type":"Feature","properties":{"name":"Bay Head Borough","short":"Bay Head","county":"Ocean"},"geometry":{"type":"Point","coordinates":[-74.045975,40.072219]}},
{"type":"Feature","properties":{"name":"Point Pleasant Borough","short":"Point Pleasant","county":"Ocean"},"geometry":{"type":"Point","coordinates":[-74.069525,40.075553]}},
{"type":"Feature","properties":{"name":"Burlington City","short":"Burlington","county":"Burlington"},"geometry":{"type":"Point","coordinates":[-74.848082,40.078352]}},
{"type":"Feature","properties":{"name":"Point Pleasant Beach Borough","short":"Point Pleasant Beach","county":"Ocean"},"geometry":{"type":"Point","coordinates":[-74.045118,40.095764]}},
{"type":"Feature","properties":{"name":"Lakewood Township","short":"Lakewood","county":"Ocean"},"geometry":{"type":"Point","coordinates":[-74.194741,40.075464]}},
{"type":"Feature","properties":{"name":"Burlington Township","short":"Burlington","county":"Burlington"},"geometry":{"type":"Point","coordinates":[-74.834799,40.049592]}},
{"type":"Feature","properties":{"name":"Brielle Borough","short":"Brielle","county":"Monmouth"},"geometry":{"type":"Point","coordinates":[-74.063492,40.106736]}},
{"type":"Feature","properties":{"name":"Mansfield Township","short":"Mansfield","county":"Burlington"},"geometry":{"type":"Point","coordinates":[-74.706684,40.086187]}},
{"type":"Feature","properties":{"name":"Florence Township","short":"Florence","county":"Burlington"},"geometry":{"type":"Point","coordinates":[-74.786186,40.096]}},
{"type":"Feature","properties":{"name":"Plumsted Township","short":"Plumsted","county":"Ocean"},"geometry":{"type":"Point","coordinates":[-74.49195,40.059382]}},
{"type":"Feature","properties":{"name":"Brick Township","short":"Brick","county":"Ocean"},"geometry":{"type":"Point","coordinates":[-74.121383,40.057442]}},
{"type":"Feature","properties":{"name":"North Hanover Township","short":"North Hanover","county":"Burlington"},"geometry":{"type":"Point","coordinates":[-74.586484,40.076899]}},
{"type":"Feature","properties":{"name":"Sea Girt Borough","short":"Sea Girt","county":"Monmouth"},"geometry":{"type":"Point","coordinates":[-74.035233,40.13244]}},
{"type":"Feature","properties":{"name":"Fieldsboro Borough","short":"Fieldsboro","county":"Burlington"},"geometry":{"type":"Point","coordinates":[-74.731218,40.136861]}},
{"type":"Feature","properties":{"name":"Bordentown City","short":"Bordentown","county":"Burlington"},"geometry":{"type":"Point","coordinates":[-74.707874,40.148954]}},
{"type":"Feature","properties":{"name":"Spring Lake Heights Borough","short":"Spring Lake Heights","county":"Monmouth"},"geometry":{"type":"Point","coordinates":[-74.043898,40.148833]}},
{"type":"Feature","properties":{"name":"Chesterfield Township","short":"Chesterfield","county":"Burlington"},"geometry":{"type":"Point","coordinates":[-74.646844,40.118237]}},
{"type":"Feature","properties":{"name":"Spring Lake Borough","short":"Spring Lake","county":"Monmouth"},"geometry":{"type":"Point","coordinates":[-74.026419,40.15897]}},
{"type":"Feature","properties":{"name":"Jackson Township","short":"Jackson","county":"Ocean"},"geometry":{"type":"Point","coordinates":[-74.378704,40.094702]}},
{"type":"Feature","properties":{"name":"Lake Como Borough","short":"Lake Como","county":"Monmouth"},"geometry":{"type":"Point","coordinates":[-74.026942,40.170809]}},
{"type":"Feature","properties":{"name":"Bordentown Township","short":"Bordentown","county":"Burlington"},"geometry":{"type":"Point","coordinates":[-74.705372,40.128473]}},
{"type":"Feature","properties":{"name":"Allentown Borough","short":"Allentown","county":"Monmouth"},"geometry":{"type":"Point","coordinates":[-74.588194,40.177034]}},
{"type":"Feature","properties":{"name":"Belmar Borough","short":"Belmar","county":"Monmouth"},"geometry":{"type":"Point","coordinates":[-74.018772,40.180071]}},
{"type":"Feature","properties":{"name":"Avon-by-the-Sea Borough","short":"Avon-by-the-Sea","county":"Monmouth"},"geometry":{"type":"Point","coordinates":[-74.012441,40.191518]}},
{"type":"Feature","properties":{"name":"Farmingdale Borough","short":"Farmingdale","county":"Monmouth"},"geometry":{"type":"Point","coordinates":[-74.170812,40.19929]}},
{"type":"Feature","properties":{"name":"Neptune City Borough","short":"Neptune City","county":"Monmouth"},"geometry":{"type":"Point","coordinates":[-74.026989,40.198032]}},
{"type":"Feature","properties":{"name":"Upper Freehold Township","short":"Upper Freehold","county":"Monmouth"},"geometry":{"type":"Point","coordinates":[-74.520412,40.157885]}},
{"type":"Feature","properties":{"name":"Asbury Park City","short":"Asbury Park","county":"Monmouth"},"geometry":{"type":"Point","coordinates":[-74.012452,40.222461]}},
{"type":"Feature","properties":{"name":"Loch Arbour Village","short":"Loch Arbour","county":"Monmouth"},"geometry":{"type":"Point","coordinates":[-74.00087,40.232421]}},
{"type":"Feature","properties":{"name":"Roosevelt Borough","short":"Roosevelt","county":"Monmouth"},"geometry":{"type":"Point","coordinates":[-74.473417,40.220842]}},
{"type":"Feature","properties":{"name":"Allenhurst Borough","short":"Allenhurst","county":"Monmouth"},"geometry":{"type":"Point","coordinates":[-74.005584,40.236578]}},
{"type":"Feature","properties":{"name":"Interlaken Borough","short":"Interlaken","county":"Monmouth"},"geometry":{"type":"Point","coordinates":[-74.018889,40.236008]}},
{"type":"Feature","properties":{"name":"Trenton City","short":"Trenton","county":"Mercer"},"geometry":{"type":"Point","coordinates":[-74.752477,40.219326]}},
{"type":"Feature","properties":{"name":"Howell Township","short":"Howell","county":"Monmouth"},"geometry":{"type":"Point","coordinates":[-74.204049,40.158483]}},
{"type":"Feature","properties":{"name":"Deal Borough","short":"Deal","county":"Monmouth"},"geometry":{"type":"Point","coordinates":[-73.997308,40.250657]}},
{"type":"Feature","properties":{"name":"Robbinsville Township","short":"Robbinsville","county":"Mercer"},"geometry":{"type":"Point","coordinates":[-74.58314,40.218347]}},
{"type":"Feature","properties":{"name":"Hamilton Township","short":"Hamilton","county":"Mercer"},"geometry":{"type":"Point","coordinates":[-74.687112,40.223199]}},
{"type":"Feature","properties":{"name":"Freehold Borough","short":"Freehold","county":"Monmouth"},"geometry":{"type":"Point","coordinates":[-74.27454,40.257998]}},
{"type":"Feature","properties":{"name":"Millstone Township","short":"Millstone","county":"Monmouth"},"geometry":{"type":"Point","coordinates":[-74.415043,40.216082]}},
{"type":"Feature","properties":{"name":"Ocean Township","short":"Ocean","county":"Monmouth"},"geometry":{"type":"Point","coordinates":[-74.044082,40.249857]}},
{"type":"Feature","properties":{"name":"Hightstown Borough","short":"Hightstown","county":"Mercer"},"geometry":{"type":"Point","coordinates":[-74.526183,40.267246]}},
{"type":"Feature","properties":{"name":"Ewing Township","short":"Ewing","county":"Mercer"},"geometry":{"type":"Point","coordinates":[-74.789671,40.267992]}},
{"type":"Feature","properties":{"name":"Freehold Township","short":"Freehold","county":"Monmouth"},"geometry":{"type":"Point","coordinates":[-74.304727,40.204038]}},
{"type":"Feature","properties":{"name":"East Windsor Township","short":"East Windsor","county":"Mercer"},"geometry":{"type":"Point","coordinates":[-74.554053,40.266713]}},
{"type":"Feature","properties":{"name":"Englishtown Borough","short":"Englishtown","county":"Monmouth"},"geometry":{"type":"Point","coordinates":[-74.359584,40.297471]}},
{"type":"Feature","properties":{"name":"West Long Branch Borough","short":"West Long Branch","county":"Monmouth"},"geometry":{"type":"Point","coordinates":[-74.017362,40.287679]}},
{"type":"Feature","properties":{"name":"Eatontown Borough","short":"Eatontown","county":"Monmouth"},"geometry":{"type":"Point","coordinates":[-74.057015,40.292434]}},
{"type":"Feature","properties":{"name":"Shrewsbury Township","short":"Shrewsbury","county":"Monmouth"},"geometry":{"type":"Point","coordinates":[-74.071421,40.313602]}},
{"type":"Feature","properties":{"name":"Long Branch City","short":"Long Branch","county":"Monmouth"},"geometry":{"type":"Point","coordinates":[-73.990935,40.303155]}},
{"type":"Feature","properties":{"name":"Pennington Borough","short":"Pennington","county":"Mercer"},"geometry":{"type":"Point","coordinates":[-74.791067,40.32296]}},
{"type":"Feature","properties":{"name":"Tinton Falls Borough","short":"Tinton Falls","county":"Monmouth"},"geometry":{"type":"Point","coordinates":[-74.106038,40.23549]}},
{"type":"Feature","properties":{"name":"Shrewsbury Borough","short":"Shrewsbury","county":"Monmouth"},"geometry":{"type":"Point","coordinates":[-74.061624,40.324345]}},
{"type":"Feature","properties":{"name":"Cranbury Township","short":"Cranbury","county":"Middlesex"},"geometry":{"type":"Point","coordinates":[-74.511225,40.30774]}},
{"type":"Feature","properties":{"name":"Oceanport Borough","short":"Oceanport","county":"Monmouth"},"geometry":{"type":"Point","coordinates":[-74.024667,40.31218]}},
{"type":"Feature","properties":{"name":"West Windsor Township","short":"West Windsor","county":"Mercer"},"geometry":{"type":"Point","coordinates":[-74.631465,40.286959]}},
{"type":"Feature","properties":{"name":"Manalapan Township","short":"Manalapan","county":"Monmouth"},"geometry":{"type":"Point","coordinates":[-74.351678,40.25768]}},
{"type":"Feature","properties":{"name":"Colts Neck Township","short":"Colts Neck","county":"Monmouth"},"geometry":{"type":"Point","coordinates":[-74.181941,40.292571]}},
{"type":"Feature","properties":{"name":"Monmouth Beach Borough","short":"Monmouth Beach","county":"Monmouth"},"geometry":{"type":"Point","coordinates":[-73.982738,40.336447]}},
{"type":"Feature","properties":{"name":"Little Silver Borough","short":"Little Silver","county":"Monmouth"},"geometry":{"type":"Point","coordinates":[-74.041627,40.339297]}},
{"type":"Feature","properties":{"name":"Lawrence Township","short":"Lawrence","county":"Mercer"},"geometry":{"type":"Point","coordinates":[-74.719984,40.300077]}},
{"type":"Feature","properties":{"name":"Jamesburg Borough","short":"Jamesburg","county":"Middlesex"},"geometry":{"type":"Point","coordinates":[-74.442364,40.349194]}},
{"type":"Feature","properties":{"name":"Red Bank Borough","short":"Red Bank","county":"Monmouth"},"geometry":{"type":"Point","coordinates":[-74.069662,40.347171]}},
{"type":"Feature","properties":{"name":"Plainsboro Township","short":"Plainsboro","county":"Middlesex"},"geometry":{"type":"Point","coordinates":[-74.583654,40.335746]}},
{"type":"Feature","properties":{"name":"Fair Haven Borough","short":"Fair Haven","county":"Monmouth"},"geometry":{"type":"Point","coordinates":[-74.035673,40.363043]}},
{"type":"Feature","properties":{"name":"Rumson Borough","short":"Rumson","county":"Monmouth"},"geometry":{"type":"Point","coordinates":[-74.001218,40.364281]}},
{"type":"Feature","properties":{"name":"Lambertville City","short":"Lambertville","county":"Hunterdon"},"geometry":{"type":"Point","coordinates":[-74.941699,40.366036]}},
{"type":"Feature","properties":{"name":"Helmetta Borough","short":"Helmetta","county":"Middlesex"},"geometry":{"type":"Point","coordinates":[-74.423298,40.380264]}},
{"type":"Feature","properties":{"name":"Princeton","short":"Princeton","county":"Mercer"},"geometry":{"type":"Point","coordinates":[-74.675534,40.35369]}},
{"type":"Feature","properties":{"name":"Marlboro Township","short":"Marlboro","county":"Monmouth"},"geometry":{"type":"Point","coordinates":[-74.263435,40.345914]}},
{"type":"Feature","properties":{"name":"Hopewell Borough","short":"Hopewell","county":"Mercer"},"geometry":{"type":"Point","coordinates":[-74.760304,40.391439]}},
{"type":"Feature","properties":{"name":"Sea Bright Borough","short":"Sea Bright","county":"Monmouth"},"geometry":{"type":"Point","coordinates":[-73.976633,40.350469]}},
{"type":"Feature","properties":{"name":"Rocky Hill Borough","short":"Rocky Hill","county":"Somerset"},"geometry":{"type":"Point","coordinates":[-74.640222,40.400923]}},
{"type":"Feature","properties":{"name":"Spotswood Borough","short":"Spotswood","county":"Middlesex"},"geometry":{"type":"Point","coordinates":[-74.390751,40.396031]}},
{"type":"Feature","properties":{"name":"Stockton Borough","short":"Stockton","county":"Hunterdon"},"geometry":{"type":"Point","coordinates":[-74.973115,40.405643]}},
{"type":"Feature","properties":{"name":"Hopewell Township","short":"Hopewell","county":"Mercer"},"geometry":{"type":"Point","coordinates":[-74.833457,40.323996]}},
{"type":"Feature","properties":{"name":"West Amwell Township","short":"West Amwell","county":"Hunterdon"},"geometry":{"type":"Point","coordinates":[-74.90176,40.377671]}},
{"type":"Feature","properties":{"name":"Holmdel Township","short":"Holmdel","county":"Monmouth"},"geometry":{"type":"Point","coordinates":[-74.175128,40.384397]}},
{"type":"Feature","properties":{"name":"Matawan Borough","short":"Matawan","county":"Monmouth"},"geometry":{"type":"Point","coordinates":[-74.237809,40.415281]}},
{"type":"Feature","properties":{"name":"South Brunswick Township","short":"South Brunswick","county":"Middlesex"},"geometry":{"type":"Point","coordinates":[-74.517463,40.374644]}},
{"type":"Feature","properties":{"name":"Keyport Borough","short":"Keyport","county":"Monmouth"},"geometry":{"type":"Point","coordinates":[-74.201874,40.431365]}},
{"type":"Feature","properties":{"name":"Middletown Township","short":"Middletown","county":"Monmouth"},"geometry":{"type":"Point","coordinates":[-74.097824,40.394225]}},
{"type":"Feature","properties":{"name":"Hazlet Township","short":"Hazlet","county":"Monmouth"},"geometry":{"type":"Point","coordinates":[-74.178282,40.42644]}},
{"type":"Feature","properties":{"name":"Keansburg Borough","short":"Keansburg","county":"Monmouth"},"geometry":{"type":"Point","coordinates":[-74.131276,40.447169]}},
{"type":"Feature","properties":{"name":"Union Beach Borough","short":"Union Beach","county":"Monmouth"},"geometry":{"type":"Point","coordinates":[-74.175574,40.446006]}},
{"type":"Feature","properties":{"name":"Milltown Borough","short":"Milltown","county":"Middlesex"},"geometry":{"type":"Point","coordinates":[-74.432407,40.451106]}},
{"type":"Feature","properties":{"name":"Old Bridge Township","short":"Old Bridge","county":"Middlesex"},"geometry":{"type":"Point","coordinates":[-74.317891,40.399417]}},
{"type":"Feature","properties":{"name":"South River Borough","short":"South River","county":"Middlesex"},"geometry":{"type":"Point","coordinates":[-74.377439,40.441771]}},
{"type":"Feature","properties":{"name":"Montgomery Township","short":"Montgomery","county":"Somerset"},"geometry":{"type":"Point","coordinates":[-74.678373,40.428316]}},
{"type":"Feature","properties":{"name":"North Brunswick Township","short":"North Brunswick","county":"Middlesex"},"geometry":{"type":"Point","coordinates":[-74.49453,40.443394]}},
{"type":"Feature","properties":{"name":"East Brunswick Township","short":"East Brunswick","county":"Middlesex"},"geometry":{"type":"Point","coordinates":[-74.407964,40.424409]}},
{"type":"Feature","properties":{"name":"East Amwell Township","short":"East Amwell","county":"Hunterdon"},"geometry":{"type":"Point","coordinates":[-74.798637,40.450019]}},
{"type":"Feature","properties":{"name":"South Amboy City","short":"South Amboy","county":"Middlesex"},"geometry":{"type":"Point","coordinates":[-74.284089,40.485079]}},
{"type":"Feature","properties":{"name":"Millstone Borough","short":"Millstone","county":"Somerset"},"geometry":{"type":"Point","coordinates":[-74.59226,40.499618]}},
{"type":"Feature","properties":{"name":"New Brunswick City","short":"New Brunswick","county":"Middlesex"},"geometry":{"type":"Point","coordinates":[-74.447346,40.490189]}},
{"type":"Feature","properties":{"name":"Sayreville Borough","short":"Sayreville","county":"Middlesex"},"geometry":{"type":"Point","coordinates":[-74.339523,40.458505]}},
{"type":"Feature","properties":{"name":"Flemington Borough","short":"Flemington","county":"Hunterdon"},"geometry":{"type":"Point","coordinates":[-74.860449,40.50869]}},
{"type":"Feature","properties":{"name":"Delaware Township","short":"Delaware","county":"Hunterdon"},"geometry":{"type":"Point","coordinates":[-74.951103,40.445341]}},
{"type":"Feature","properties":{"name":"Frenchtown Borough","short":"Frenchtown","county":"Hunterdon"},"geometry":{"type":"Point","coordinates":[-75.056702,40.526659]}},
{"type":"Feature","properties":{"name":"Perth Amboy City","short":"Perth Amboy","county":"Middlesex"},"geometry":{"type":"Point","coordinates":[-74.272838,40.523655]}},
{"type":"Feature","properties":{"name":"Franklin Township","short":"Franklin","county":"Somerset"},"geometry":{"type":"Point","coordinates":[-74.532566,40.499636]}},
{"type":"Feature","properties":{"name":"Manville Borough","short":"Manville","county":"Somerset"},"geometry":{"type":"Point","coordinates":[-74.591022,40.540628]}},
{"type":"Feature","properties":{"name":"South Bound Brook Borough","short":"South Bound Brook","county":"Somerset"},"geometry":{"type":"Point","coordinates":[-74.526337,40.554122]}},
{"type":"Feature","properties":{"name":"Hillsborough Township","short":"Hillsborough","county":"Somerset"},"geometry":{"type":"Point","coordinates":[-74.647974,40.510399]}},
{"type":"Feature","properties":{"name":"Milford Borough","short":"Milford","county":"Hunterdon"},"geometry":{"type":"Point","coordinates":[-75.090649,40.569968]}},
{"type":"Feature","properties":{"name":"Raritan Township","short":"Raritan","county":"Hunterdon"},"geometry":{"type":"Point","coordinates":[-74.899168,40.514023]}},
{"type":"Feature","properties":{"name":"Somerville Borough","short":"Somerville","county":"Somerset"},"geometry":{"type":"Point","coordinates":[-74.613988,40.570274]}},
{"type":"Feature","properties":{"name":"Bound Brook Borough","short":"Bound Brook","county":"Somerset"},"geometry":{"type":"Point","coordinates":[-74.541312,40.564052]}},
{"type":"Feature","properties":{"name":"Raritan Borough","short":"Raritan","county":"Somerset"},"geometry":{"type":"Point","coordinates":[-74.641838,40.57254]}},
{"type":"Feature","properties":{"name":"Piscataway Township","short":"Piscataway","county":"Middlesex"},"geometry":{"type":"Point","coordinates":[-74.466829,40.54376]}},
{"type":"Feature","properties":{"name":"South Plainfield Borough","short":"South Plainfield","county":"Middlesex"},"geometry":{"type":"Point","coordinates":[-74.414946,40.576434]}},
{"type":"Feature","properties":{"name":"Carteret Borough","short":"Carteret","county":"Middlesex"},"geometry":{"type":"Point","coordinates":[-74.225583,40.585143]}},
{"type":"Feature","properties":{"name":"Rahway City","short":"Rahway","county":"Union"},"geometry":{"type":"Point","coordinates":[-74.279266,40.609258]}},
{"type":"Feature","properties":{"name":"Franklin Township","short":"Franklin","county":"Hunterdon"},"geometry":{"type":"Point","coordinates":[-74.945552,40.554384]}},
{"type":"Feature","properties":{"name":"Green Brook Township","short":"Green Brook","county":"Somerset"},"geometry":{"type":"Point","coordinates":[-74.483007,40.60462]}},
{"type":"Feature","properties":{"name":"Winfield Township","short":"Winfield","county":"Union"},"geometry":{"type":"Point","coordinates":[-74.288199,40.636465]}},
{"type":"Feature","properties":{"name":"Clark Township","short":"Clark","county":"Union"},"geometry":{"type":"Point","coordinates":[-74.310422,40.622354]}},
{"type":"Feature","properties":{"name":"Holland Township","short":"Holland","county":"Hunterdon"},"geometry":{"type":"Point","coordinates":[-75.116178,40.605878]}},
{"type":"Feature","properties":{"name":"North Plainfield Borough","short":"North Plainfield","county":"Somerset"},"geometry":{"type":"Point","coordinates":[-74.431996,40.624385]}},
{"type":"Feature","properties":{"name":"Plainfield City","short":"Plainfield","county":"Union"},"geometry":{"type":"Point","coordinates":[-74.409802,40.615185]}},
{"type":"Feature","properties":{"name":"Clinton Town","short":"Clinton","county":"Hunterdon"},"geometry":{"type":"Point","coordinates":[-74.910635,40.636874]}},
{"type":"Feature","properties":{"name":"Alexandria Township","short":"Alexandria","county":"Hunterdon"},"geometry":{"type":"Point","coordinates":[-75.019229,40.583613]}},
{"type":"Feature","properties":{"name":"Bridgewater Township","short":"Bridgewater","county":"Somerset"},"geometry":{"type":"Point","coordinates":[-74.622655,40.61173]}},
{"type":"Feature","properties":{"name":"Lebanon Borough","short":"Lebanon","county":"Hunterdon"},"geometry":{"type":"Point","coordinates":[-74.836402,40.642829]}},
{"type":"Feature","properties":{"name":"Fanwood Borough","short":"Fanwood","county":"Union"},"geometry":{"type":"Point","coordinates":[-74.385196,40.641661]}},
{"type":"Feature","properties":{"name":"Linden City","short":"Linden","county":"Union"},"geometry":{"type":"Point","coordinates":[-74.234369,40.62639]}},
{"type":"Feature","properties":{"name":"Garwood Borough","short":"Garwood","county":"Union"},"geometry":{"type":"Point","coordinates":[-74.32423,40.651255]}},
{"type":"Feature","properties":{"name":"Roselle Borough","short":"Roselle","county":"Union"},"geometry":{"type":"Point","coordinates":[-74.265574,40.650555]}},
{"type":"Feature","properties":{"name":"Bloomsbury Borough","short":"Bloomsbury","county":"Hunterdon"},"geometry":{"type":"Point","coordinates":[-75.073787,40.659258]}},
{"type":"Feature","properties":{"name":"Roselle Park Borough","short":"Roselle Park","county":"Union"},"geometry":{"type":"Point","coordinates":[-74.264532,40.666298]}},
{"type":"Feature","properties":{"name":"Warren Township","short":"Warren","county":"Somerset"},"geometry":{"type":"Point","coordinates":[-74.517739,40.623351]}},
{"type":"Feature","properties":{"name":"Alpha Borough","short":"Alpha","county":"Warren"},"geometry":{"type":"Point","coordinates":[-75.153798,40.664736]}},
{"type":"Feature","properties":{"name":"Cranford Township","short":"Cranford","county":"Union"},"geometry":{"type":"Point","coordinates":[-74.298979,40.658182]}},
{"type":"Feature","properties":{"name":"Union Township","short":"Union","county":"Hunterdon"},"geometry":{"type":"Point","coordinates":[-74.9638,40.630745]}},
{"type":"Feature","properties":{"name":"High Bridge Borough","short":"High Bridge","county":"Hunterdon"},"geometry":{"type":"Point","coordinates":[-74.894914,40.667963]}},
{"type":"Feature","properties":{"name":"Westfield Town","short":"Westfield","county":"Union"},"geometry":{"type":"Point","coordinates":[-74.349409,40.650724]}},
{"type":"Feature","properties":{"name":"Kenilworth Borough","short":"Kenilworth","county":"Union"},"geometry":{"type":"Point","coordinates":[-74.282532,40.677249]}},
{"type":"Feature","properties":{"name":"Elizabeth City","short":"Elizabeth","county":"Union"},"geometry":{"type":"Point","coordinates":[-74.202163,40.663777]}},
{"type":"Feature","properties":{"name":"Clinton Township","short":"Clinton","county":"Hunterdon"},"geometry":{"type":"Point","coordinates":[-74.861369,40.611589]}},
{"type":"Feature","properties":{"name":"Berkeley Heights Township","short":"Berkeley Heights","county":"Union"},"geometry":{"type":"Point","coordinates":[-74.430128,40.67887]}},
{"type":"Feature","properties":{"name":"Mountainside Borough","short":"Mountainside","county":"Union"},"geometry":{"type":"Point","coordinates":[-74.359632,40.683405]}},
{"type":"Feature","properties":{"name":"Bayonne City","short":"Bayonne","county":"Hudson"},"geometry":{"type":"Point","coordinates":[-74.120826,40.665913]}},
{"type":"Feature","properties":{"name":"Bethlehem Township","short":"Bethlehem","county":"Hunterdon"},"geometry":{"type":"Point","coordinates":[-75.01313,40.669287]}},
{"type":"Feature","properties":{"name":"Glen Gardner Borough","short":"Glen Gardner","county":"Hunterdon"},"geometry":{"type":"Point","coordinates":[-74.940252,40.701398]}},
{"type":"Feature","properties":{"name":"New Providence Borough","short":"New Providence","county":"Union"},"geometry":{"type":"Point","coordinates":[-74.396863,40.703815]}},
{"type":"Feature","properties":{"name":"Springfield Township","short":"Springfield","county":"Union"},"geometry":{"type":"Point","coordinates":[-74.327296,40.699037]}},
{"type":"Feature","properties":{"name":"Hampton Borough","short":"Hampton","county":"Hunterdon"},"geometry":{"type":"Point","coordinates":[-74.959338,40.706769]}},
{"type":"Feature","properties":{"name":"Greenwich Township","short":"Greenwich","county":"Warren"},"geometry":{"type":"Point","coordinates":[-75.113812,40.682408]}},
{"type":"Feature","properties":{"name":"Union Township","short":"Union","county":"Union"},"geometry":{"type":"Point","coordinates":[-74.281981,40.705344]}},
{"type":"Feature","properties":{"name":"Lopatcong Township","short":"Lopatcong","county":"Warren"},"geometry":{"type":"Point","coordinates":[-75.152958,40.706424]}},
{"type":"Feature","properties":{"name":"Far Hills Borough","short":"Far Hills","county":"Somerset"},"geometry":{"type":"Point","coordinates":[-74.622286,40.682016]}},
{"type":"Feature","properties":{"name":"Bedminster Township","short":"Bedminster","county":"Somerset"},"geometry":{"type":"Point","coordinates":[-74.688999,40.668565]}},
{"type":"Feature","properties":{"name":"Califon Borough","short":"Califon","county":"Hunterdon"},"geometry":{"type":"Point","coordinates":[-74.835126,40.71927]}},
{"type":"Feature","properties":{"name":"Summit City","short":"Summit","county":"Union"},"geometry":{"type":"Point","coordinates":[-74.364284,40.717569]}},
{"type":"Feature","properties":{"name":"Peapack-Gladstone Borough","short":"Peapack-Gladstone","county":"Somerset"},"geometry":{"type":"Point","coordinates":[-74.65906,40.716349]}},
{"type":"Feature","properties":{"name":"Tewksbury Township","short":"Tewksbury","county":"Hunterdon"},"geometry":{"type":"Point","coordinates":[-74.78812,40.701461]}},
{"type":"Feature","properties":{"name":"Bernardsville Borough","short":"Bernardsville","county":"Somerset"},"geometry":{"type":"Point","coordinates":[-74.597991,40.723416]}},
{"type":"Feature","properties":{"name":"Hoboken City","short":"Hoboken","county":"Hudson"},"geometry":{"type":"Point","coordinates":[-74.031162,40.746809]}},
{"type":"Feature","properties":{"name":"Maplewood Township","short":"Maplewood","county":"Essex"},"geometry":{"type":"Point","coordinates":[-74.275432,40.73106]}},
{"type":"Feature","properties":{"name":"Millburn Township","short":"Millburn","county":"Essex"},"geometry":{"type":"Point","coordinates":[-74.324712,40.738499]}},
{"type":"Feature","properties":{"name":"South Orange Village","short":"South Orange","county":"Essex"},"geometry":{"type":"Point","coordinates":[-74.260056,40.747825]}},
{"type":"Feature","properties":{"name":"Kearny Town","short":"Kearny","county":"Hudson"},"geometry":{"type":"Point","coordinates":[-74.112041,40.755807]}},
{"type":"Feature","properties":{"name":"Lebanon Township","short":"Lebanon","county":"Hunterdon"},"geometry":{"type":"Point","coordinates":[-74.892481,40.724938]}},
{"type":"Feature","properties":{"name":"East Orange City","short":"East Orange","county":"Essex"},"geometry":{"type":"Point","coordinates":[-74.206818,40.766288]}},
{"type":"Feature","properties":{"name":"City of Orange Township","short":"City of Orange Township","county":"Essex"},"geometry":{"type":"Point","coordinates":[-74.23131,40.769961]}},
{"type":"Feature","properties":{"name":"West New York Town","short":"West New York","county":"Hudson"},"geometry":{"type":"Point","coordinates":[-74.015263,40.787689]}},
{"type":"Feature","properties":{"name":"North Arlington Borough","short":"North Arlington","county":"Bergen"},"geometry":{"type":"Point","coordinates":[-74.126103,40.787728]}},
{"type":"Feature","properties":{"name":"Belleville Township","short":"Belleville","county":"Essex"},"geometry":{"type":"Point","coordinates":[-74.156615,40.795463]}},
{"type":"Feature","properties":{"name":"Livingston Township","short":"Livingston","county":"Essex"},"geometry":{"type":"Point","coordinates":[-74.333537,40.786127]}},
{"type":"Feature","properties":{"name":"Lyndhurst Township","short":"Lyndhurst","county":"Bergen"},"geometry":{"type":"Point","coordinates":[-74.124022,40.809672]}},
{"type":"Feature","properties":{"name":"West Orange Township","short":"West Orange","county":"Essex"},"geometry":{"type":"Point","coordinates":[-74.260703,40.790215]}},
{"type":"Feature","properties":{"name":"Glen Ridge Borough","short":"Glen Ridge","county":"Essex"},"geometry":{"type":"Point","coordinates":[-74.201594,40.806637]}},
{"type":"Feature","properties":{"name":"Oxford Township","short":"Oxford","county":"Warren"},"geometry":{"type":"Point","coordinates":[-75.00329,40.805493]}},
{"type":"Feature","properties":{"name":"Essex Fells Borough","short":"Essex Fells","county":"Essex"},"geometry":{"type":"Point","coordinates":[-74.282011,40.825908]}},
{"type":"Feature","properties":{"name":"Nutley Township","short":"Nutley","county":"Essex"},"geometry":{"type":"Point","coordinates":[-74.159444,40.820827]}},
{"type":"Feature","properties":{"name":"Roseland Borough","short":"Roseland","county":"Essex"},"geometry":{"type":"Point","coordinates":[-74.318934,40.8231]}},
{"type":"Feature","properties":{"name":"Belvidere Town","short":"Belvidere","county":"Warren"},"geometry":{"type":"Point","coordinates":[-75.074594,40.830014]}},
{"type":"Feature","properties":{"name":"Rutherford Borough","short":"Rutherford","county":"Bergen"},"geometry":{"type":"Point","coordinates":[-74.111322,40.827053]}},
{"type":"Feature","properties":{"name":"Ridgefield Borough","short":"Ridgefield","county":"Bergen"},"geometry":{"type":"Point","coordinates":[-74.021062,40.830901]}},
{"type":"Feature","properties":{"name":"Caldwell Borough","short":"Caldwell","county":"Essex"},"geometry":{"type":"Point","coordinates":[-74.280432,40.841115]}},
{"type":"Feature","properties":{"name":"Bloomfield Township","short":"Bloomfield","county":"Essex"},"geometry":{"type":"Point","coordinates":[-74.178782,40.83465]}},
{"type":"Feature","properties":{"name":"Verona Township","short":"Verona","county":"Essex"},"geometry":{"type":"Point","coordinates":[-74.247695,40.834423]}},
{"type":"Feature","properties":{"name":"Carlstadt Borough","short":"Carlstadt","county":"Bergen"},"geometry":{"type":"Point","coordinates":[-74.052524,40.819559]}},
{"type":"Feature","properties":{"name":"East Rutherford Borough","short":"East Rutherford","county":"Bergen"},"geometry":{"type":"Point","coordinates":[-74.078087,40.810781]}},
{"type":"Feature","properties":{"name":"Moonachie Borough","short":"Moonachie","county":"Bergen"},"geometry":{"type":"Point","coordinates":[-74.052677,40.84092]}},
{"type":"Feature","properties":{"name":"Palisades Park Borough","short":"Palisades Park","county":"Bergen"},"geometry":{"type":"Point","coordinates":[-73.996672,40.84732]}},
{"type":"Feature","properties":{"name":"Little Ferry Borough","short":"Little Ferry","county":"Bergen"},"geometry":{"type":"Point","coordinates":[-74.038079,40.849787]}},
{"type":"Feature","properties":{"name":"Montclair Township","short":"Montclair","county":"Essex"},"geometry":{"type":"Point","coordinates":[-74.215881,40.818943]}},
{"type":"Feature","properties":{"name":"Wallington Borough","short":"Wallington","county":"Bergen"},"geometry":{"type":"Point","coordinates":[-74.105446,40.850507]}},
{"type":"Feature","properties":{"name":"Wood-Ridge Borough","short":"Wood-Ridge","county":"Bergen"},"geometry":{"type":"Point","coordinates":[-74.086289,40.848279]}},
{"type":"Feature","properties":{"name":"West Caldwell Township","short":"West Caldwell","county":"Essex"},"geometry":{"type":"Point","coordinates":[-74.305274,40.845348]}},
{"type":"Feature","properties":{"name":"Ridgefield Park Village","short":"Ridgefield Park","county":"Bergen"},"geometry":{"type":"Point","coordinates":[-74.018731,40.85522]}},
{"type":"Feature","properties":{"name":"Fort Lee Borough","short":"Fort Lee","county":"Bergen"},"geometry":{"type":"Point","coordinates":[-73.969644,40.856505]}},
{"type":"Feature","properties":{"name":"South Hackensack Township","short":"South Hackensack","county":"Bergen"},"geometry":{"type":"Point","coordinates":[-74.04529,40.862404]}},
{"type":"Feature","properties":{"name":"Hasbrouck Heights Borough","short":"Hasbrouck Heights","county":"Bergen"},"geometry":{"type":"Point","coordinates":[-74.077123,40.859907]}},
{"type":"Feature","properties":{"name":"Passaic City","short":"Passaic","county":"Passaic"},"geometry":{"type":"Point","coordinates":[-74.13253,40.853073]}},
{"type":"Feature","properties":{"name":"Leonia Borough","short":"Leonia","county":"Bergen"},"geometry":{"type":"Point","coordinates":[-73.987973,40.865501]}},
{"type":"Feature","properties":{"name":"Cedar Grove Township","short":"Cedar Grove","county":"Essex"},"geometry":{"type":"Point","coordinates":[-74.22914,40.857906]}},
{"type":"Feature","properties":{"name":"North Caldwell Borough","short":"North Caldwell","county":"Essex"},"geometry":{"type":"Point","coordinates":[-74.258279,40.865761]}},
{"type":"Feature","properties":{"name":"Hackettstown Town","short":"Hackettstown","county":"Warren"},"geometry":{"type":"Point","coordinates":[-74.831777,40.849827]}},
{"type":"Feature","properties":{"name":"Bogota Borough","short":"Bogota","county":"Bergen"},"geometry":{"type":"Point","coordinates":[-74.029222,40.876545]}},
{"type":"Feature","properties":{"name":"Little Falls Township","short":"Little Falls","county":"Passaic"},"geometry":{"type":"Point","coordinates":[-74.217549,40.877854]}},
{"type":"Feature","properties":{"name":"Garfield City","short":"Garfield","county":"Bergen"},"geometry":{"type":"Point","coordinates":[-74.10663,40.877317]}},
{"type":"Feature","properties":{"name":"Lodi Borough","short":"Lodi","county":"Bergen"},"geometry":{"type":"Point","coordinates":[-74.077082,40.88065]}},
{"type":"Feature","properties":{"name":"Liberty Township","short":"Liberty","county":"Warren"},"geometry":{"type":"Point","coordinates":[-74.950749,40.863427]}},
{"type":"Feature","properties":{"name":"Englewood Cliffs Borough","short":"Englewood Cliffs","county":"Bergen"},"geometry":{"type":"Point","coordinates":[-73.949486,40.887173]}},
{"type":"Feature","properties":{"name":"Fairfield Township","short":"Fairfield","county":"Essex"},"geometry":{"type":"Point","coordinates":[-74.309655,40.884039]}},
{"type":"Feature","properties":{"name":"Byram Township","short":"Byram","county":"Sussex"},"geometry":{"type":"Point","coordinates":[-74.721545,40.948858]}},
{"type":"Feature","properties":{"name":"Hackensack City","short":"Hackensack","county":"Bergen"},"geometry":{"type":"Point","coordinates":[-74.049575,40.885739]}},
{"type":"Feature","properties":{"name":"Englewood City","short":"Englewood","county":"Bergen"},"geometry":{"type":"Point","coordinates":[-73.972804,40.894907]}},
{"type":"Feature","properties":{"name":"Teaneck Township","short":"Teaneck","county":"Bergen"},"geometry":{"type":"Point","coordinates":[-74.01144,40.893063]}},
{"type":"Feature","properties":{"name":"Maywood Borough","short":"Maywood","county":"Bergen"},"geometry":{"type":"Point","coordinates":[-74.064184,40.901121]}},
{"type":"Feature","properties":{"name":"Rochelle Park Township","short":"Rochelle Park","county":"Bergen"},"geometry":{"type":"Point","coordinates":[-74.075516,40.906081]}},
{"type":"Feature","properties":{"name":"Saddle Brook Township","short":"Saddle Brook","county":"Bergen"},"geometry":{"type":"Point","coordinates":[-74.092,40.897691]}},
{"type":"Feature","properties":{"name":"Elmwood Park Borough","short":"Elmwood Park","county":"Bergen"},"geometry":{"type":"Point","coordinates":[-74.119288,40.902653]}},
{"type":"Feature","properties":{"name":"Totowa Borough","short":"Totowa","county":"Passaic"},"geometry":{"type":"Point","coordinates":[-74.224497,40.902067]}},
{"type":"Feature","properties":{"name":"Stanhope Borough","short":"Stanhope","county":"Sussex"},"geometry":{"type":"Point","coordinates":[-74.705445,40.914389]}},
{"type":"Feature","properties":{"name":"Independence Township","short":"Independence","county":"Warren"},"geometry":{"type":"Point","coordinates":[-74.887084,40.881691]}},
{"type":"Feature","properties":{"name":"Tenafly Borough","short":"Tenafly","county":"Bergen"},"geometry":{"type":"Point","coordinates":[-73.959025,40.92099]}},
{"type":"Feature","properties":{"name":"Bergenfield Borough","short":"Bergenfield","county":"Bergen"},"geometry":{"type":"Point","coordinates":[-73.995585,40.924054]}},
{"type":"Feature","properties":{"name":"Paterson City","short":"Paterson","county":"Passaic"},"geometry":{"type":"Point","coordinates":[-74.158222,40.913365]}},
{"type":"Feature","properties":{"name":"River Edge Borough","short":"River Edge","county":"Bergen"},"geometry":{"type":"Point","coordinates":[-74.04105,40.923899]}},
{"type":"Feature","properties":{"name":"Hope Township","short":"Hope","county":"Warren"},"geometry":{"type":"Point","coordinates":[-74.976302,40.910912]}},
{"type":"Feature","properties":{"name":"Prospect Park Borough","short":"Prospect Park","county":"Passaic"},"geometry":{"type":"Point","coordinates":[-74.174302,40.937474]}},
{"type":"Feature","properties":{"name":"Haledon Borough","short":"Haledon","county":"Passaic"},"geometry":{"type":"Point","coordinates":[-74.188625,40.938162]}},
{"type":"Feature","properties":{"name":"New Milford Borough","short":"New Milford","county":"Bergen"},"geometry":{"type":"Point","coordinates":[-74.021151,40.927375]}},
{"type":"Feature","properties":{"name":"Fair Lawn Borough","short":"Fair Lawn","county":"Bergen"},"geometry":{"type":"Point","coordinates":[-74.110984,40.935969]}},
{"type":"Feature","properties":{"name":"Cresskill Borough","short":"Cresskill","county":"Bergen"},"geometry":{"type":"Point","coordinates":[-73.968232,40.943938]}},
{"type":"Feature","properties":{"name":"Dumont Borough","short":"Dumont","county":"Bergen"},"geometry":{"type":"Point","coordinates":[-73.993258,40.94555]}},
{"type":"Feature","properties":{"name":"Allamuchy Township","short":"Allamuchy","county":"Warren"},"geometry":{"type":"Point","coordinates":[-74.831057,40.921096]}},
{"type":"Feature","properties":{"name":"Demarest Borough","short":"Demarest","county":"Bergen"},"geometry":{"type":"Point","coordinates":[-73.949607,40.950883]}},
{"type":"Feature","properties":{"name":"Oradell Borough","short":"Oradell","county":"Bergen"},"geometry":{"type":"Point","coordinates":[-74.033657,40.952221]}},
{"type":"Feature","properties":{"name":"Haworth Borough","short":"Haworth","county":"Bergen"},"geometry":{"type":"Point","coordinates":[-73.996087,40.962778]}},
{"type":"Feature","properties":{"name":"Glen Rock Borough","short":"Glen Rock","county":"Bergen"},"geometry":{"type":"Point","coordinates":[-74.129756,40.961372]}},
{"type":"Feature","properties":{"name":"North Haledon Borough","short":"North Haledon","county":"Passaic"},"geometry":{"type":"Point","coordinates":[-74.182601,40.961394]}},
{"type":"Feature","properties":{"name":"Paramus Borough","short":"Paramus","county":"Bergen"},"geometry":{"type":"Point","coordinates":[-74.069634,40.940679]}},
{"type":"Feature","properties":{"name":"Hawthorne Borough","short":"Hawthorne","county":"Passaic"},"geometry":{"type":"Point","coordinates":[-74.155856,40.960904]}},
{"type":"Feature","properties":{"name":"Closter Borough","short":"Closter","county":"Bergen"},"geometry":{"type":"Point","coordinates":[-73.948678,40.97255]}},
{"type":"Feature","properties":{"name":"Emerson Borough","short":"Emerson","county":"Bergen"},"geometry":{"type":"Point","coordinates":[-74.029972,40.976879]}},
{"type":"Feature","properties":{"name":"Knowlton Township","short":"Knowlton","county":"Warren"},"geometry":{"type":"Point","coordinates":[-75.048001,40.922093]}},
{"type":"Feature","properties":{"name":"Hopatcong Borough","short":"Hopatcong","county":"Sussex"},"geometry":{"type":"Point","coordinates":[-74.664397,40.946546]}},
{"type":"Feature","properties":{"name":"Andover Borough","short":"Andover","county":"Sussex"},"geometry":{"type":"Point","coordinates":[-74.74228,40.989464]}},
{"type":"Feature","properties":{"name":"Westwood Borough","short":"Westwood","county":"Bergen"},"geometry":{"type":"Point","coordinates":[-74.039036,40.991009]}},
{"type":"Feature","properties":{"name":"Washington Township","short":"Washington","county":"Bergen"},"geometry":{"type":"Point","coordinates":[-74.063419,40.988494]}},
{"type":"Feature","properties":{"name":"Green Township","short":"Green","county":"Sussex"},"geometry":{"type":"Point","coordinates":[-74.792227,40.97136]}},
{"type":"Feature","properties":{"name":"Alpine Borough","short":"Alpine","county":"Bergen"},"geometry":{"type":"Point","coordinates":[-73.922553,40.971035]}},
{"type":"Feature","properties":{"name":"Harrington Park Borough","short":"Harrington Park","county":"Bergen"},"geometry":{"type":"Point","coordinates":[-73.978591,40.990868]}},
{"type":"Feature","properties":{"name":"Ridgewood Village","short":"Ridgewood","county":"Bergen"},"geometry":{"type":"Point","coordinates":[-74.106399,40.98084]}},
{"type":"Feature","properties":{"name":"Midland Park Borough","short":"Midland Park","county":"Bergen"},"geometry":{"type":"Point","coordinates":[-74.141245,40.995283]}},
{"type":"Feature","properties":{"name":"Ho-Ho-Kus Borough","short":"Ho-Ho-Kus","county":"Bergen"},"geometry":{"type":"Point","coordinates":[-74.087323,40.998495]}},
{"type":"Feature","properties":{"name":"Norwood Borough","short":"Norwood","county":"Bergen"},"geometry":{"type":"Point","coordinates":[-73.957626,40.993104]}},
{"type":"Feature","properties":{"name":"Wayne Township","short":"Wayne","county":"Passaic"},"geometry":{"type":"Point","coordinates":[-74.241534,40.949335]}},
{"type":"Feature","properties":{"name":"Rockleigh Borough","short":"Rockleigh","county":"Bergen"},"geometry":{"type":"Point","coordinates":[-73.932475,41.002359]}},
{"type":"Feature","properties":{"name":"Frelinghuysen Township","short":"Frelinghuysen","county":"Warren"},"geometry":{"type":"Point","coordinates":[-74.898114,40.962255]}},
{"type":"Feature","properties":{"name":"Hillsdale Borough","short":"Hillsdale","county":"Bergen"},"geometry":{"type":"Point","coordinates":[-74.031145,41.008431]}},
{"type":"Feature","properties":{"name":"Waldwick Borough","short":"Waldwick","county":"Bergen"},"geometry":{"type":"Point","coordinates":[-74.123897,41.013391]}},
{"type":"Feature","properties":{"name":"Northvale Borough","short":"Northvale","county":"Bergen"},"geometry":{"type":"Point","coordinates":[-73.947188,41.00987]}},
{"type":"Feature","properties":{"name":"Wyckoff Township","short":"Wyckoff","county":"Bergen"},"geometry":{"type":"Point","coordinates":[-74.172804,41.004092]}},
{"type":"Feature","properties":{"name":"Old Tappan Borough","short":"Old Tappan","county":"Bergen"},"geometry":{"type":"Point","coordinates":[-73.982952,41.018387]}},
{"type":"Feature","properties":{"name":"Blairstown Township","short":"Blairstown","county":"Warren"},"geometry":{"type":"Point","coordinates":[-75.000806,40.98155]}},
{"type":"Feature","properties":{"name":"Franklin Lakes Borough","short":"Franklin Lakes","county":"Bergen"},"geometry":{"type":"Point","coordinates":[-74.211217,41.002427]}},
{"type":"Feature","properties":{"name":"River Vale Township","short":"River Vale","county":"Bergen"},"geometry":{"type":"Point","coordinates":[-74.009322,41.026617]}},
{"type":"Feature","properties":{"name":"Allendale Borough","short":"Allendale","county":"Bergen"},"geometry":{"type":"Point","coordinates":[-74.130241,41.034596]}},
{"type":"Feature","properties":{"name":"Woodcliff Lake Borough","short":"Woodcliff Lake","county":"Bergen"},"geometry":{"type":"Point","coordinates":[-74.06351,41.022697]}},
{"type":"Feature","properties":{"name":"Park Ridge Borough","short":"Park Ridge","county":"Bergen"},"geometry":{"type":"Point","coordinates":[-74.043323,41.036622]}},
{"type":"Feature","properties":{"name":"Saddle River Borough","short":"Saddle River","county":"Bergen"},"geometry":{"type":"Point","coordinates":[-74.096952,41.029702]}},
{"type":"Feature","properties":{"name":"Oakland Borough","short":"Oakland","county":"Bergen"},"geometry":{"type":"Point","coordinates":[-74.23917,41.03627]}},
{"type":"Feature","properties":{"name":"Bloomingdale Borough","short":"Bloomingdale","county":"Passaic"},"geometry":{"type":"Point","coordinates":[-74.337913,41.02695]}},
{"type":"Feature","properties":{"name":"Fredon Township","short":"Fredon","county":"Sussex"},"geometry":{"type":"Point","coordinates":[-74.805058,41.030376]}},
{"type":"Feature","properties":{"name":"Montvale Borough","short":"Montvale","county":"Bergen"},"geometry":{"type":"Point","coordinates":[-74.064267,41.057085]}},
{"type":"Feature","properties":{"name":"Ramsey Borough","short":"Ramsey","county":"Bergen"},"geometry":{"type":"Point","coordinates":[-74.145849,41.060737]}},
{"type":"Feature","properties":{"name":"Andover Township","short":"Andover","county":"Sussex"},"geometry":{"type":"Point","coordinates":[-74.716952,41.024941]}},
{"type":"Feature","properties":{"name":"Upper Saddle River Borough","short":"Upper Saddle River","county":"Bergen"},"geometry":{"type":"Point","coordinates":[-74.095675,41.065811]}},
{"type":"Feature","properties":{"name":"Ogdensburg Borough","short":"Ogdensburg","county":"Sussex"},"geometry":{"type":"Point","coordinates":[-74.598778,41.077495]}},
{"type":"Feature","properties":{"name":"Hardwick Township","short":"Hardwick","county":"Warren"},"geometry":{"type":"Point","coordinates":[-74.932394,41.017661]}},
{"type":"Feature","properties":{"name":"Sparta Township","short":"Sparta","county":"Sussex"},"geometry":{"type":"Point","coordinates":[-74.645569,41.040364]}},
{"type":"Feature","properties":{"name":"Mahwah Township","short":"Mahwah","county":"Bergen"},"geometry":{"type":"Point","coordinates":[-74.195723,41.090278]}},
{"type":"Feature","properties":{"name":"Franklin Borough","short":"Franklin","county":"Sussex"},"geometry":{"type":"Point","coordinates":[-74.591427,41.105716]}},
{"type":"Feature","properties":{"name":"Branchville Borough","short":"Branchville","county":"Sussex"},"geometry":{"type":"Point","coordinates":[-74.748053,41.146311]}},
{"type":"Feature","properties":{"name":"Hamburg Borough","short":"Hamburg","county":"Sussex"},"geometry":{"type":"Point","coordinates":[-74.573079,41.144067]}},
{"type":"Feature","properties":{"name":"Lafayette Township","short":"Lafayette","county":"Sussex"},"geometry":{"type":"Point","coordinates":[-74.691824,41.102681]}},
{"type":"Feature","properties":{"name":"Ringwood Borough","short":"Ringwood","county":"Passaic"},"geometry":{"type":"Point","coordinates":[-74.269308,41.112532]}},
{"type":"Feature","properties":{"name":"Walpack Township","short":"Walpack","county":"Sussex"},"geometry":{"type":"Point","coordinates":[-74.926351,41.107382]}},
{"type":"Feature","properties":{"name":"Sussex Borough","short":"Sussex","county":"Sussex"},"geometry":{"type":"Point","coordinates":[-74.607881,41.209554]}},
{"type":"Feature","properties":{"name":"Frankford Township","short":"Frankford","county":"Sussex"},"geometry":{"type":"Point","coordinates":[-74.70714,41.164087]}},
{"type":"Feature","properties":{"name":"Sandyston Township","short":"Sandyston","county":"Sussex"},"geometry":{"type":"Point","coordinates":[-74.807468,41.221573]}},
{"type":"Feature","properties":{"name":"Wantage Township","short":"Wantage","county":"Sussex"},"geometry":{"type":"Point","coordinates":[-74.624779,41.266857]}},
{"type":"Feature","properties":{"name":"Bradley Beach Borough","short":"Bradley Beach","county":"Monmouth"},"geometry":{"type":"Point","coordinates":[-74.013381,40.201518]}},
{"type":"Feature","properties":{"name":"Hillside Township","short":"Hillside","county":"Union"},"geometry":{"type":"Point","coordinates":[-74.226363,40.696646]}},
{"type":"Feature","properties":{"name":"Irvington Township","short":"Irvington","county":"Essex"},"geometry":{"type":"Point","coordinates":[-74.234029,40.721565]}},
{"type":"Feature","properties":{"name":"Newark City","short":"Newark","county":"Essex"},"geometry":{"type":"Point","coordinates":[-74.187046,40.718168]}},
{"type":"Feature","properties":{"name":"Jersey City","short":"Jersey","county":"Hudson"},"geometry":{"type":"Point","coordinates":[-74.063512,40.722805]}},
{"type":"Feature","properties":{"name":"Newton Town","short":"Newton","county":"Sussex"},"geometry":{"type":"Point","coordinates":[-74.752158,41.053037]}},
{"type":"Feature","properties":{"name":"Hampton Township","short":"Hampton","county":"Sussex"},"geometry":{"type":"Point","coordinates":[-74.796291,41.100976]}},
{"type":"Feature","properties":{"name":"Stillwater Township","short":"Stillwater","county":"Sussex"},"geometry":{"type":"Point","coordinates":[-74.862634,41.076168]}},
{"type":"Feature","properties":{"name":"Kingwood Township","short":"Kingwood","county":"Hunterdon"},"geometry":{"type":"Point","coordinates":[-75.00658,40.508183]}},
{"type":"Feature","properties":{"name":"Readington Township","short":"Readington","county":"Hunterdon"},"geometry":{"type":"Point","coordinates":[-74.792029,40.558675]}},
{"type":"Feature","properties":{"name":"Long Hill Township","short":"Long Hill","county":"Morris"},"geometry":{"type":"Point","coordinates":[-74.496855,40.682257]}},
{"type":"Feature","properties":{"name":"Chatham Township","short":"Chatham","county":"Morris"},"geometry":{"type":"Point","coordinates":[-74.428842,40.723964]}},
{"type":"Feature","properties":{"name":"Madison Borough","short":"Madison","county":"Morris"},"geometry":{"type":"Point","coordinates":[-74.414967,40.757501]}},
{"type":"Feature","properties":{"name":"Harding Township","short":"Harding","county":"Morris"},"geometry":{"type":"Point","coordinates":[-74.49859,40.734321]}},
{"type":"Feature","properties":{"name":"Mendham Borough","short":"Mendham","county":"Morris"},"geometry":{"type":"Point","coordinates":[-74.599573,40.767418]}},
{"type":"Feature","properties":{"name":"Chester Borough","short":"Chester","county":"Morris"},"geometry":{"type":"Point","coordinates":[-74.699142,40.785909]}},
{"type":"Feature","properties":{"name":"Morristown Town","short":"Morristown","county":"Morris"},"geometry":{"type":"Point","coordinates":[-74.47576,40.793289]}},
{"type":"Feature","properties":{"name":"Mendham Township","short":"Mendham","county":"Morris"},"geometry":{"type":"Point","coordinates":[-74.564165,40.793213]}},
{"type":"Feature","properties":{"name":"East Hanover Township","short":"East Hanover","county":"Morris"},"geometry":{"type":"Point","coordinates":[-74.367485,40.816455]}},
{"type":"Feature","properties":{"name":"Washington Township","short":"Washington","county":"Morris"},"geometry":{"type":"Point","coordinates":[-74.79253,40.791644]}},
{"type":"Feature","properties":{"name":"Morris Plains Borough","short":"Morris Plains","county":"Morris"},"geometry":{"type":"Point","coordinates":[-74.478856,40.835114]}},
{"type":"Feature","properties":{"name":"Victory Gardens Borough","short":"Victory Gardens","county":"Morris"},"geometry":{"type":"Point","coordinates":[-74.545008,40.875558]}},
{"type":"Feature","properties":{"name":"Randolph Township","short":"Randolph","county":"Morris"},"geometry":{"type":"Point","coordinates":[-74.573248,40.845199]}},
{"type":"Feature","properties":{"name":"Mountain Lakes Borough","short":"Mountain Lakes","county":"Morris"},"geometry":{"type":"Point","coordinates":[-74.440847,40.889995]}},
{"type":"Feature","properties":{"name":"Rockaway Borough","short":"Rockaway","county":"Morris"},"geometry":{"type":"Point","coordinates":[-74.510197,40.900484]}},
{"type":"Feature","properties":{"name":"Wharton Borough","short":"Wharton","county":"Morris"},"geometry":{"type":"Point","coordinates":[-74.580993,40.899346]}},
{"type":"Feature","properties":{"name":"Boonton Town","short":"Boonton","county":"Morris"},"geometry":{"type":"Point","coordinates":[-74.411211,40.90558]}},
{"type":"Feature","properties":{"name":"Mount Olive Township","short":"Mount Olive","county":"Morris"},"geometry":{"type":"Point","coordinates":[-74.750323,40.875266]}},
{"type":"Feature","properties":{"name":"Denville Township","short":"Denville","county":"Morris"},"geometry":{"type":"Point","coordinates":[-74.474968,40.904872]}},
{"type":"Feature","properties":{"name":"Roxbury Township","short":"Roxbury","county":"Morris"},"geometry":{"type":"Point","coordinates":[-74.665337,40.866063]}},
{"type":"Feature","properties":{"name":"Mount Arlington Borough","short":"Mount Arlington","county":"Morris"},"geometry":{"type":"Point","coordinates":[-74.63254,40.935322]}},
{"type":"Feature","properties":{"name":"Lincoln Park Borough","short":"Lincoln Park","county":"Morris"},"geometry":{"type":"Point","coordinates":[-74.304495,40.923333]}},
{"type":"Feature","properties":{"name":"Boonton Township","short":"Boonton","county":"Morris"},"geometry":{"type":"Point","coordinates":[-74.42311,40.933236]}},
{"type":"Feature","properties":{"name":"Montville Township","short":"Montville","county":"Morris"},"geometry":{"type":"Point","coordinates":[-74.356325,40.922499]}},
{"type":"Feature","properties":{"name":"Pequannock Township","short":"Pequannock","county":"Morris"},"geometry":{"type":"Point","coordinates":[-74.297864,40.961136]}},
{"type":"Feature","properties":{"name":"Butler Borough","short":"Butler","county":"Morris"},"geometry":{"type":"Point","coordinates":[-74.348971,40.99543]}},
{"type":"Feature","properties":{"name":"Rockaway Township","short":"Rockaway","county":"Morris"},"geometry":{"type":"Point","coordinates":[-74.475375,40.973709]}},
{"type":"Feature","properties":{"name":"Jefferson Township","short":"Jefferson","county":"Morris"},"geometry":{"type":"Point","coordinates":[-74.589141,40.971346]}},
{"type":"Feature","properties":{"name":"Absecon City","short":"Absecon","county":"Atlantic"},"geometry":{"type":"Point","coordinates":[-74.506326,39.429779]}},
{"type":"Feature","properties":{"name":"Branchburg Township","short":"Branchburg","county":"Somerset"},"geometry":{"type":"Point","coordinates":[-74.728256,40.540565]}},
{"type":"Feature","properties":{"name":"Pleasantville City","short":"Pleasantville","county":"Atlantic"},"geometry":{"type":"Point","coordinates":[-74.511169,39.401035]}},
{"type":"Feature","properties":{"name":"Egg Harbor Township","short":"Egg Harbor","county":"Atlantic"},"geometry":{"type":"Point","coordinates":[-74.646473,39.368631]}},
{"type":"Feature","properties":{"name":"Teterboro Borough","short":"Teterboro","county":"Bergen"},"geometry":{"type":"Point","coordinates":[-74.061416,40.8548]}},
{"type":"Feature","properties":{"name":"Egg Harbor City","short":"Egg Harbor","county":"Atlantic"},"geometry":{"type":"Point","coordinates":[-74.571242,39.58512]}},
{"type":"Feature","properties":{"name":"Hammonton Town","short":"Hammonton","county":"Atlantic"},"geometry":{"type":"Point","coordinates":[-74.776997,39.649419]}},
{"type":"Feature","properties":{"name":"Mullica Township","short":"Mullica","county":"Atlantic"},"geometry":{"type":"Point","coordinates":[-74.69985,39.604452]}},
{"type":"Feature","properties":{"name":"Bernards Township","short":"Bernards","county":"Somerset"},"geometry":{"type":"Point","coordinates":[-74.559028,40.68126]}},
{"type":"Feature","properties":{"name":"Wall Township","short":"Wall","county":"Monmouth"},"geometry":{"type":"Point","coordinates":[-74.091464,40.168619]}},
{"type":"Feature","properties":{"name":"Manasquan Borough","short":"Manasquan","county":"Monmouth"},"geometry":{"type":"Point","coordinates":[-74.0512,40.123509]}},
{"type":"Feature","properties":{"name":"Aberdeen Township","short":"Aberdeen","county":"Monmouth"},"geometry":{"type":"Point","coordinates":[-74.219185,40.404501]}},
{"type":"Feature","properties":{"name":"Woodbridge Township","short":"Woodbridge","county":"Middlesex"},"geometry":{"type":"Point","coordinates":[-74.3011,40.563637]}},
{"type":"Feature","properties":{"name":"Stow Creek Township","short":"Stow Creek","county":"Cumberland"},"geometry":{"type":"Point","coordinates":[-75.336487,39.454859]}},
{"type":"Feature","properties":{"name":"Fairfield Township","short":"Fairfield","county":"Cumberland"},"geometry":{"type":"Point","coordinates":[-75.175514,39.402928]}},
{"type":"Feature","properties":{"name":"Maurice River Township","short":"Maurice River","county":"Cumberland"},"geometry":{"type":"Point","coordinates":[-74.933235,39.321103]}},
{"type":"Feature","properties":{"name":"Pittsgrove Township","short":"Pittsgrove","county":"Salem"},"geometry":{"type":"Point","coordinates":[-75.12484,39.544264]}},
{"type":"Feature","properties":{"name":"Netcong Borough","short":"Netcong","county":"Morris"},"geometry":{"type":"Point","coordinates":[-74.697267,40.900961]}},
{"type":"Feature","properties":{"name":"Voorhees Township","short":"Voorhees","county":"Camden"},"geometry":{"type":"Point","coordinates":[-74.939169,39.852036]}},
{"type":"Feature","properties":{"name":"Evesham Township","short":"Evesham","county":"Burlington"},"geometry":{"type":"Point","coordinates":[-74.895577,39.884166]}},
{"type":"Feature","properties":{"name":"Florham Park Borough","short":"Florham Park","county":"Morris"},"geometry":{"type":"Point","coordinates":[-74.385811,40.780756]}},
{"type":"Feature","properties":{"name":"New Hanover Township","short":"New Hanover","county":"Burlington"},"geometry":{"type":"Point","coordinates":[-74.55661,40.020046]}},
{"type":"Feature","properties":{"name":"Galloway Township","short":"Galloway","county":"Atlantic"},"geometry":{"type":"Point","coordinates":[-74.431367,39.475497]}},
{"type":"Feature","properties":{"name":"Wildwood City","short":"Wildwood","county":"Cape May"},"geometry":{"type":"Point","coordinates":[-74.819296,38.986834]}},
{"type":"Feature","properties":{"name":"Medford Township","short":"Medford","county":"Burlington"},"geometry":{"type":"Point","coordinates":[-74.824427,39.899467]}},
{"type":"Feature","properties":{"name":"Riverdale Borough","short":"Riverdale","county":"Morris"},"geometry":{"type":"Point","coordinates":[-74.314007,40.991073]}},
{"type":"Feature","properties":{"name":"Kinnelon Borough","short":"Kinnelon","county":"Morris"},"geometry":{"type":"Point","coordinates":[-74.40364,40.988384]}},
{"type":"Feature","properties":{"name":"Highlands Borough","short":"Highlands","county":"Monmouth"},"geometry":{"type":"Point","coordinates":[-73.984903,40.399759]}},
{"type":"Feature","properties":{"name":"Atlantic Highlands Borough","short":"Atlantic Highlands","county":"Monmouth"},"geometry":{"type":"Point","coordinates":[-74.031376,40.40955]}},
{"type":"Feature","properties":{"name":"Chatham Borough","short":"Chatham","county":"Morris"},"geometry":{"type":"Point","coordinates":[-74.385809,40.742178]}},
{"type":"Feature","properties":{"name":"Neptune Township","short":"Neptune","county":"Monmouth"},"geometry":{"type":"Point","coordinates":[-74.066362,40.215356]}},
{"type":"Feature","properties":{"name":"Montague Township","short":"Montague","county":"Sussex"},"geometry":{"type":"Point","coordinates":[-74.728469,41.292796]}},
{"type":"Feature","properties":{"name":"Pompton Lakes Borough","short":"Pompton Lakes","county":"Passaic"},"geometry":{"type":"Point","coordinates":[-74.287442,41.005457]}},
{"type":"Feature","properties":{"name":"Wanaque Borough","short":"Wanaque","county":"Passaic"},"geometry":{"type":"Point","coordinates":[-74.279365,41.041316]}},
{"type":"Feature","properties":{"name":"Woodland Park Borough","short":"Woodland Park","county":"Passaic"},"geometry":{"type":"Point","coordinates":[-74.190735,40.891822]}},
{"type":"Feature","properties":{"name":"Clifton City","short":"Clifton","county":"Passaic"},"geometry":{"type":"Point","coordinates":[-74.165092,40.866623]}},
{"type":"Feature","properties":{"name":"Hardyston Township","short":"Hardyston","county":"Sussex"},"geometry":{"type":"Point","coordinates":[-74.539002,41.104192]}},
{"type":"Feature","properties":{"name":"West Milford Township","short":"West Milford","county":"Passaic"},"geometry":{"type":"Point","coordinates":[-74.396688,41.098365]}},
{"type":"Feature","properties":{"name":"Vernon Township","short":"Vernon","county":"Sussex"},"geometry":{"type":"Point","coordinates":[-74.483766,41.189906]}},
{"type":"Feature","properties":{"name":"Monroe Township","short":"Monroe","county":"Middlesex"},"geometry":{"type":"Point","coordinates":[-74.44247,40.302147]}},
{"type":"Feature","properties":{"name":"Hanover Township","short":"Hanover","county":"Morris"},"geometry":{"type":"Point","coordinates":[-74.418559,40.819876]}},
{"type":"Feature","properties":{"name":"Parsippany-Troy Hills Township","short":"Parsippany-Troy Hills","county":"Morris"},"geometry":{"type":"Point","coordinates":[-74.397402,40.865791]}},
{"type":"Feature","properties":{"name":"Morris Township","short":"Morris","county":"Morris"},"geometry":{"type":"Point","coordinates":[-74.517412,40.811626]}},
{"type":"Feature","properties":{"name":"Dover Town","short":"Dover","county":"Morris"},"geometry":{"type":"Point","coordinates":[-74.55987,40.884628]}},
{"type":"Feature","properties":{"name":"Mine Hill Township","short":"Mine Hill","county":"Morris"},"geometry":{"type":"Point","coordinates":[-74.600376,40.879233]}},
{"type":"Feature","properties":{"name":"Chester Township","short":"Chester","county":"Morris"},"geometry":{"type":"Point","coordinates":[-74.69927,40.751838]}},
{"type":"Feature","properties":{"name":"Mantoloking Borough","short":"Mantoloking","county":"Ocean"},"geometry":{"type":"Point","coordinates":[-74.048251,40.055172]}},
{"type":"Feature","properties":{"name":"Newfield Borough","short":"Newfield","county":"Gloucester"},"geometry":{"type":"Point","coordinates":[-75.015207,39.547303]}},
{"type":"Feature","properties":{"name":"Elk Township","short":"Elk","county":"Gloucester"},"geometry":{"type":"Point","coordinates":[-75.147466,39.661183]}},
{"type":"Feature","properties":{"name":"Monroe Township","short":"Monroe","county":"Gloucester"},"geometry":{"type":"Point","coordinates":[-74.956831,39.65812]}},
{"type":"Feature","properties":{"name":"Franklin Township","short":"Franklin","county":"Gloucester"},"geometry":{"type":"Point","coordinates":[-75.033544,39.606214]}},
{"type":"Feature","properties":{"name":"Clayton Borough","short":"Clayton","county":"Gloucester"},"geometry":{"type":"Point","coordinates":[-75.085502,39.662268]}},
{"type":"Feature","properties":{"name":"Glassboro Borough","short":"Glassboro","county":"Gloucester"},"geometry":{"type":"Point","coordinates":[-75.111886,39.711535]}},
{"type":"Feature","properties":{"name":"Pitman Borough","short":"Pitman","county":"Gloucester"},"geometry":{"type":"Point","coordinates":[-75.129346,39.733986]}},
{"type":"Feature","properties":{"name":"Mantua Township","short":"Mantua","county":"Gloucester"},"geometry":{"type":"Point","coordinates":[-75.177891,39.768794]}},
{"type":"Feature","properties":{"name":"South Harrison Township","short":"South Harrison","county":"Gloucester"},"geometry":{"type":"Point","coordinates":[-75.269499,39.705936]}},
{"type":"Feature","properties":{"name":"Harrison Township","short":"Harrison","county":"Gloucester"},"geometry":{"type":"Point","coordinates":[-75.217424,39.733147]}},
{"type":"Feature","properties":{"name":"Swedesboro Borough","short":"Swedesboro","county":"Gloucester"},"geometry":{"type":"Point","coordinates":[-75.310276,39.748581]}},
{"type":"Feature","properties":{"name":"Woolwich Township","short":"Woolwich","county":"Gloucester"},"geometry":{"type":"Point","coordinates":[-75.340273,39.729641]}},
{"type":"Feature","properties":{"name":"Paulsboro Borough","short":"Paulsboro","county":"Gloucester"},"geometry":{"type":"Point","coordinates":[-75.239078,39.846652]}},
{"type":"Feature","properties":{"name":"National Park Borough","short":"National Park","county":"Gloucester"},"geometry":{"type":"Point","coordinates":[-75.190886,39.871577]}},
{"type":"Feature","properties":{"name":"Westville Borough","short":"Westville","county":"Gloucester"},"geometry":{"type":"Point","coordinates":[-75.12819,39.864043]}},
{"type":"Feature","properties":{"name":"Washington Township","short":"Washington","county":"Gloucester"},"geometry":{"type":"Point","coordinates":[-75.071827,39.741164]}},
{"type":"Feature","properties":{"name":"Gloucester Township","short":"Gloucester","county":"Camden"},"geometry":{"type":"Point","coordinates":[-75.049358,39.808087]}},
{"type":"Feature","properties":{"name":"Wenonah Borough","short":"Wenonah","county":"Gloucester"},"geometry":{"type":"Point","coordinates":[-75.148684,39.791859]}},
{"type":"Feature","properties":{"name":"Woodbury Heights Borough","short":"Woodbury Heights","county":"Gloucester"},"geometry":{"type":"Point","coordinates":[-75.155264,39.819448]}},
{"type":"Feature","properties":{"name":"East Greenwich Township","short":"East Greenwich","county":"Gloucester"},"geometry":{"type":"Point","coordinates":[-75.240034,39.789766]}},
{"type":"Feature","properties":{"name":"Greenwich Township","short":"Greenwich","county":"Gloucester"},"geometry":{"type":"Point","coordinates":[-75.28064,39.825574]}},
{"type":"Feature","properties":{"name":"Woodbury City","short":"Woodbury","county":"Gloucester"},"geometry":{"type":"Point","coordinates":[-75.149518,39.835483]}},
{"type":"Feature","properties":{"name":"West Deptford Township","short":"West Deptford","county":"Gloucester"},"geometry":{"type":"Point","coordinates":[-75.197669,39.836985]}},
{"type":"Feature","properties":{"name":"Deptford Township","short":"Deptford","county":"Gloucester"},"geometry":{"type":"Point","coordinates":[-75.113163,39.820507]}},
{"type":"Feature","properties":{"name":"Little Egg Harbor Township","short":"Little Egg Harbor","county":"Ocean"},"geometry":{"type":"Point","coordinates":[-74.359076,39.542547]}},
{"type":"Feature","properties":{"name":"Stafford Township","short":"Stafford","county":"Ocean"},"geometry":{"type":"Point","coordinates":[-74.230182,39.682158]}},
{"type":"Feature","properties":{"name":"Eagleswood Township","short":"Eagleswood","county":"Ocean"},"geometry":{"type":"Point","coordinates":[-74.284672,39.638941]}},
{"type":"Feature","properties":{"name":"Carneys Point Township","short":"Carneys Point","county":"Salem"},"geometry":{"type":"Point","coordinates":[-75.450818,39.700054]}},
{"type":"Feature","properties":{"name":"Phillipsburg Town","short":"Phillipsburg","county":"Warren"},"geometry":{"type":"Point","coordinates":[-75.185644,40.691027]}},
{"type":"Feature","properties":{"name":"Pohatcong Township","short":"Pohatcong","county":"Warren"},"geometry":{"type":"Point","coordinates":[-75.173708,40.626765]}},
{"type":"Feature","properties":{"name":"Mansfield Township","short":"Mansfield","county":"Warren"},"geometry":{"type":"Point","coordinates":[-74.909859,40.81814]}},
{"type":"Feature","properties":{"name":"White Township","short":"White","county":"Warren"},"geometry":{"type":"Point","coordinates":[-75.033439,40.840744]}},
{"type":"Feature","properties":{"name":"Franklin Township","short":"Franklin","county":"Warren"},"geometry":{"type":"Point","coordinates":[-75.046224,40.718893]}},
{"type":"Feature","properties":{"name":"Harmony Township","short":"Harmony","county":"Warren"},"geometry":{"type":"Point","coordinates":[-75.11345,40.750971]}},
{"type":"Feature","properties":{"name":"Washington Township","short":"Washington","county":"Warren"},"geometry":{"type":"Point","coordinates":[-74.98074,40.729829]}},
{"type":"Feature","properties":{"name":"Pennsauken Township","short":"Pennsauken","county":"Camden"},"geometry":{"type":"Point","coordinates":[-75.038913,39.97393]}},
{"type":"Feature","properties":{"name":"Collingswood Borough","short":"Collingswood","county":"Camden"},"geometry":{"type":"Point","coordinates":[-75.080304,39.916886]}},
{"type":"Feature","properties":{"name":"Camden City","short":"Camden","county":"Camden"},"geometry":{"type":"Point","coordinates":[-75.114425,39.936762]}},
{"type":"Feature","properties":{"name":"Washington Borough","short":"Washington","county":"Warren"},"geometry":{"type":"Point","coordinates":[-74.988101,40.757496]}},
{"type":"Feature","properties":{"name":"Watchung Borough","short":"Watchung","county":"Somerset"},"geometry":{"type":"Point","coordinates":[-74.432595,40.648301]}},
{"type":"Feature","properties":{"name":"Scotch Plains Township","short":"Scotch Plains","county":"Union"},"geometry":{"type":"Point","coordinates":[-74.367449,40.620935]}},
{"type":"Feature","properties":{"name":"East Newark Borough","short":"East Newark","county":"Hudson"},"geometry":{"type":"Point","coordinates":[-74.163215,40.751631]}},
{"type":"Feature","properties":{"name":"Harrison Town","short":"Harrison","county":"Hudson"},"geometry":{"type":"Point","coordinates":[-74.152474,40.742383]}},
{"type":"Feature","properties":{"name":"Weehawken Township","short":"Weehawken","county":"Hudson"},"geometry":{"type":"Point","coordinates":[-74.015179,40.774828]}},
{"type":"Feature","properties":{"name":"Secaucus Town","short":"Secaucus","county":"Hudson"},"geometry":{"type":"Point","coordinates":[-74.071158,40.777371]}},
{"type":"Feature","properties":{"name":"Union City","short":"Union","county":"Hudson"},"geometry":{"type":"Point","coordinates":[-74.037009,40.764045]}},
{"type":"Feature","properties":{"name":"Guttenberg Town","short":"Guttenberg","county":"Hudson"},"geometry":{"type":"Point","coordinates":[-74.013431,40.796559]}},
{"type":"Feature","properties":{"name":"Fairview Borough","short":"Fairview","county":"Bergen"},"geometry":{"type":"Point","coordinates":[-74.004105,40.818804]}},
{"type":"Feature","properties":{"name":"Cliffside Park Borough","short":"Cliffside Park","county":"Bergen"},"geometry":{"type":"Point","coordinates":[-73.986026,40.825525]}},
{"type":"Feature","properties":{"name":"North Bergen Township","short":"North Bergen","county":"Hudson"},"geometry":{"type":"Point","coordinates":[-74.023421,40.803938]}},
{"type":"Feature","properties":{"name":"Edgewater Borough","short":"Edgewater","county":"Bergen"},"geometry":{"type":"Point","coordinates":[-73.989227,40.80854]}},
{"type":"Feature","properties":{"name":"Dunellen Borough","short":"Dunellen","county":"Middlesex"},"geometry":{"type":"Point","coordinates":[-74.464204,40.590388]}},
{"type":"Feature","properties":{"name":"Middlesex Borough","short":"Middlesex","county":"Middlesex"},"geometry":{"type":"Point","coordinates":[-74.506865,40.572642]}},
{"type":"Feature","properties":{"name":"Highland Park Borough","short":"Highland Park","county":"Middlesex"},"geometry":{"type":"Point","coordinates":[-74.427219,40.496893]}},
{"type":"Feature","properties":{"name":"Edison Township","short":"Edison","county":"Middlesex"},"geometry":{"type":"Point","coordinates":[-74.362355,40.579485]}},
{"type":"Feature","properties":{"name":"Metuchen Borough","short":"Metuchen","county":"Middlesex"},"geometry":{"type":"Point","coordinates":[-74.36149,40.54123]}},
{"type":"Feature","properties":{"name":"Middle Township","short":"Middle","county":"Cape May"},"geometry":{"type":"Point","coordinates":[-74.834432,39.080181]}}
]}
